Name,City,State,Latitude,Longitude,Source
"ACER Nitro 5 (AN515-52-76YJ) schwarz Gaming-Notebook 15,6 Zoll FHD 8GB",Ronnenberg,Niedersachsen,52.3166623,9.6532075,eBay
"MacBook Pro (Retina 15 Zoll, Anfang 2013), 8 GB RAM, 2,4 GHz, 250 GGB SSD, A1398",Warstein,Nordrhein-Westfalen,51.4458105,8.3536824,eBay
"MacBook Pro 13"" 2016 Touch Bar, general√ºberholt¬†",Hannover,Niedersachsen,52.3744779,9.7385532,eBay
"HP Pavillion Notebook, 17"", 16GB, AMD A8-6410 APU, 500GB-SSD, Win10-Prof-64b",Paderborn,Nordrhein-Westfalen,51.7177044,8.752653,eBay
"Laptop Acer Extensa 5635*15,6 Zoll*Intel Core 2 Duo 2,2*4GB RAM*250GB HDD*WLANn*",B√ºckeburg,Niedersachsen,52.2611037,9.0488959,eBay
Notebook HP G62 Intel Core i3 CPU 240GB SSD 4 GB RAM Windows 10 Pro,Harsewinkel,Nordrhein-Westfalen,51.9617153,8.2252425,eBay
Notebook HP Pavilion G6-1210SG Laptop 4GB 500GB Festplatte Windows 10,Enger,Nordrhein-Westfalen,52.1394015,8.5588818,eBay
Fujitsu Stylistic R727 Tablet - 8GB Ram - 256GB M2 SSD,Salzhemmendorf,Niedersachsen,52.0681341,9.5878533,eBay
Business - Notebook HP ProBook 4535s Windows 10 aktiviert - Akku ALU - Geh√§use !,Ostbevern,Nordrhein-Westfalen,52.0362198,7.8400336,eBay
Notebook/Laptop Lenovo SL510 . Windows10 PRO. HDMI. Neuer Akku!,Hannover,Niedersachsen,52.3744779,9.7385532,eBay
HP ZBook X2 G4,Ladbergen,Nordrhein-Westfalen,52.1363237,7.7391678,eBay
mac book air 2020,Soest,Nordrhein-Westfalen,51.5725501,8.1061259,eBay
"Apple MacBook Pro Touchbar 15"" i7 2,6 Ghz 16 GB Ram 256 GB SSD A1707",M√∂hnesee,Nordrhein-Westfalen,51.5,8.13333,eBay
"Acer Nitro 5 AN515-54 15,6 Zoll (512GB SSD, Intel Core i5 9. Gen 4,10GHz, 8GB) ‚Ä¶",Soest,Nordrhein-Westfalen,51.5725501,8.1061259,eBay
HP 15s-eq0355ng / Ryzen 3500U / 8GB Ram/ 512GB SSD,Steinhagen,Mecklenburg-Vorpommern,53.8436425,11.929235,eBay
"Apple MacBook Pro  15.4"" Laptop 2008  2,4GHz 2GB RAM 256GB SDRAM",Rheda-Wiedenbr√ºck,Nordrhein-Westfalen,51.8428202,8.2985615,eBay
"Sony VAIO 17.3""  Intel¬Æ Core‚Ñ¢ i3-2350M - 240GB SSD - 8GB RAM - Win10",Boffzen,Niedersachsen,51.7510044,9.3965915,eBay
Lenovo IdeaPad S340 15-API + Garantie (AMD Ryzen5 3500U/VEGA 8/8GB DDR4/1TB SSD),Kirchlengern,Nordrhein-Westfalen,52.1983452,8.6440034,eBay
"Apple MacBook Air Retina 13‚Äù 2020,neu,originalverpackt",Beverungen,Nordrhein-Westfalen,51.6676535,9.3759072,eBay
"Laptop Medion P8614; 18,4""; i5-450m 2,4 GHz; 8 GB RAM; 128 GB SSD; Win10 Pro x64",Bad Sassendorf,Nordrhein-Westfalen,51.5858518,8.1692402,eBay
Apple Macbook Pro 13 256GB Touch Bar 2018 ,Syke,Niedersachsen,52.9131332,8.8198737,eBay
"Lenovo IdeaPad C340-14API 35,6cm (14"") AMD Ryzen 3 3200U 8GB 256GB W10",Langenhagen,Niedersachsen,52.443118,9.738994,eBay
Apple MacBook Pro 16 Zoll - 512GB,Hannover,Niedersachsen,52.3744779,9.7385532,eBay
"ASUS F751S, Notebook, Laptop, 17,3 Zoll WIN10 + OVP",Wunstorf,Niedersachsen,52.4257979,9.4294425,eBay
"Apple MacBook Pro 15"" Laptop , 256GB - MJLQ2D/A - (Juni, 2015, Silber)",M√ºnster,Nordrhein-Westfalen,51.9625101,7.6251879,eBay
HP ENVY X360 15-aq106ng  ,Bielefeld,Nordrhein-Westfalen,52.0191005,8.531007,eBay
Dell Latitude 7275 tablet intel core m5-6Y57,Steinhagen,Mecklenburg-Vorpommern,53.8436425,11.929235,eBay
"Apple MacBook Air 13,3"", silber, 128GB SSD, 8GB, Intel Core i5, 8GB, OVP, Zubeh.",Hannover,Niedersachsen,52.3744779,9.7385532,eBay
"Apple MacBook Pro (13-inch, Retina Display) Touch bar",Bielefeld,Nordrhein-Westfalen,52.0191005,8.531007,eBay
Lenovo Ultrabook IdeaPad Slim 1-11AST-05(81VR000XGE),Warstein,Nordrhein-Westfalen,51.4458105,8.3536824,eBay
"Lenovo ThinkPad T420 | Intel Core i5 | 2,50 GHz | DVD - Laufwerk | NVIDIA Graphi",Lehrte,Niedersachsen,52.3749334,9.9748557,eBay
"HP 15-da0617ng, 15,6"" FHD, i7-7500U, 8GB RAM, 128GB SSD u. 1TB HDD",Kalefeld,Niedersachsen,51.8,10.0333,eBay
"Apple MacBook Pro A1502 33,8 cm (13,3 Zoll) Laptop - ME864D/A (Oktober, 2013)",Bad Fallingbostel,Niedersachsen,52.8654484,9.6930195,eBay
"Apple MacBook Pro 15"" 2011  i7 2.2 Ghz  4GB RAM  250GB SSD 1 Jahr Gew√§hrleistung",Seesen,Niedersachsen,51.8905566,10.1703902,eBay
"Apple MacBook Pro 15"" A1286 Mitte 2012 Intel i7 2,3GHz 16 GB RAM 256 GB SSD",Isernhagen,Niedersachsen,52.4531464,9.8348014,eBay
"Apple MacBook Pro 17 Zoll 250 GB SSD, Intel Core i7 2,2 GHz 16GB",Twistringen,Niedersachsen,52.7992604,8.6421452,eBay
MacBook Pro A1502 (Anfang 2015) Schweizer Variante,Mettingen,Grand Est,48.8129002,7.2109999,eBay
"Apple MacBook Pro 15"" 1TB SSHD -4GB RAM - 2009 - TOP",B√ºnde,Nordrhein-Westfalen,52.2003644,8.5827558,eBay
"Microsoft Surfacebook wie neu, kaum benutzt. i5 mit viel Zubeh√∂r",Burgdorf,Bern/Berne,47.0571316,7.6237466,eBay
Lenovo Yoga Book - Portable PC [WiFi + LTE] 64GB - TOP ZUSTAND - Gunmetal Grey,Werther,Nordrhein-Westfalen,52.0747049,8.4162078,eBay
"Lenovo Legion y730 - 17,3 Zoll / i7 8.Gen / 4,1 GHz",Seelze,Niedersachsen,52.3964639,9.594287,eBay
"Wie neu!Lenovo Yoga Book C930 YB-J912F - 10.8"" Touch Core i5  256GB SSD Tasche",Burgdorf,Bern/Berne,47.0571316,7.6237466,eBay
"Apple MacBook Pro 13,3-Zoll Laptop - MGX82D/A (Juli, 2014)",Hamm,Nordrhein-Westfalen,51.6804093,7.815197,eBay
Ultrabook Dell XPS 13 9370 i7 4GH ‚Äì 16GB RAM ‚Äì 512GB SSD ‚Äì Touchscreen UHD ‚Äì OVP,Winsen,Schleswig-Holstein,53.8320018,10.01568,eBay
"CSL Revolve 14,1"" Notebook Laptop Netbook 240 GB SSD Windows 10 Home",Hannover,Niedersachsen,52.3744779,9.7385532,eBay
Apple MacBook Pro 13 2016 256GB 8GB RAM OVP BaseQi,Bremen,Bremen,53.0758196,8.8071646,eBay
Medion Erazer X7851,Visselh√∂vede,Niedersachsen,52.9847596,9.5782553,eBay
acer laptop,Lippstadt,Nordrhein-Westfalen,51.6747074,8.347194,eBay
"Medion Akoya MD 99585 17,3 Zoll, Core I5,1TB HD, 8GB Ram, ",Altenberge,Nordrhein-Westfalen,52.0468367,7.4669887,eBay
"Apple MacBook Pro 15,4 Zoll (512GB SSD, Intel i7 2,90GHz, 16GB RAM), Space Grau",Bad Essen,Niedersachsen,52.3195756,8.3440599,eBay
"Apple MacBook Pro 13,3 Zoll (512GB SSD, Intel Core i5 10. Gen, 3,80 GHz,...",Bielefeld,Nordrhein-Westfalen,52.0191005,8.531007,eBay
HP 8560w Elitebook,Rheine,Nordrhein-Westfalen,52.2797707,7.4373615,eBay
"Apple MacBook 12"" / 8 GB RAM / 512 GB / 1,3 GHz / 2017 / WIE NEU / 84 Ladezyklen",Hameln,Niedersachsen,52.1039941,9.3561569,eBay
"Fujitsu Lifebook E734  i7-4702MQ 4x2,20GHz 8GB 256GB SSD Intel HD 4600 TB CAM B1",Bad Salzuflen,Nordrhein-Westfalen,52.0857452,8.7534422,eBay
"ThinkPad W541 i7-3,80GHz/ 32GB Speicher/ 1TB SSD/ 3K 2880 x 1620 / Nvidia Quadro",Horn-Bad Meinberg,Nordrhein-Westfalen,51.8801277,8.9731695,eBay
"APPLE MACBOOK PRO 15"" SPACE GRAU, LATE 2016, 16 GB RAM, 1 TB SSD",Achim,Niedersachsen,53.0068811,9.0425504,eBay
"Microsoft Surface Pro 4, Intel Core m3-6Y30, 4GB RAM, 128GB Samsung SSD, Win 10",M√ºnster,Nordrhein-Westfalen,51.9625101,7.6251879,eBay
Apple MacBook Air 2020 i3 1.1 8 GB 256 GB A2179 Space Gray,Bremen,Bremen,53.0758196,8.8071646,eBay
"Apple MacBook Air 2013 13 Zoll Notebook A1466 Core i5 1,3 GHz 4 GB RAM 128GB SSD",Herford,Nordrhein-Westfalen,52.1152245,8.6711118,eBay
"HP 15,6 Zoll Notebook 512 GB SSD Ryzen 5, 8 GB RAM Win 10 15s-eq0355ng OVP",Osnabr√ºck,Niedersachsen,52.266837,8.049741,eBay
"Apple MacBook Pro 16"" w/ Touchbar i9 32GB RAM 1TB SSD - Space Grau",Hannover,Niedersachsen,52.3744779,9.7385532,eBay
Microsoft Surface Pro (2017) Intel Core i7 256GB SSD 8GB RAM + Type Cover + Pen,Marsberg,Nordrhein-Westfalen,51.4542269,8.8550354,eBay
"MacBook Pro 13"" 2018 Space Gray 2.3 Ghz 8GB 256GB MR9Q2D OVP",Sehnde,Niedersachsen,52.3144002,9.9647193,eBay
"DELL Latitude 7280 12,5"" FHD Touch i5-7200U 2.50GHz 8GB RAM 256GB SSD TPM fehler",M√ºnster,Nordrhein-Westfalen,51.9625101,7.6251879,eBay
Lenovo ThinkPad E540 Notebook,Saerbeck,Nordrhein-Westfalen,52.1749391,7.6349894,eBay
Fujitsu Lifebook S761 / i5-2520M / 4X 2.50GHz / RAM - 4GB / HDD - 500GB / Win 10,Lippstadt,Nordrhein-Westfalen,51.6747074,8.347194,eBay
"Microsoft Surface Go 2 Pentium Gold 4425Y, 8 GB RAM, 128 GB SSD, silber",Bremen,Bremen,53.0758196,8.8071646,eBay
"DELL XPS 15 9570¬† ¬†15,6 Zoll FHD¬† ¬†512 GB SSD¬† ¬†16 GB RAM¬† ¬†Core i7¬† ¬†GTX 1050Ti",M√ºnster,Nordrhein-Westfalen,51.9625101,7.6251879,eBay
"Ultrabook Dell Latitude E7470 i5-3,0GHz 8GB-RAM SSD AKKU-TOP 14""FHD FINGERPRINT",Hannover,Niedersachsen,52.3744779,9.7385532,eBay
"HP EliteBook 840 G3 14"" Ultrabook 2,4GHz i5-6300U 8GB RAM 256GB SSD Windows 10",Garbsen,Niedersachsen,52.4276606,9.6005102,eBay
"15"" DELL E5550 TOUCHSCREEN; i7 2,6 GHz; 8 GB DDR3 RAM; 250 SSD; NVIDIA; WIN10Pro",Wildeshausen,Niedersachsen,52.897103,8.4364342,eBay
"Apple MacBook Pro Intel Core i7 3,5GHz, 16GB RAM, 512GB SSD, MID 2017 - Space Gr",Bad Iburg,Niedersachsen,52.1576093,8.0454627,eBay
Honor MagicBook 14 Zoll / 256 GB SSD / 8 GB / Silver / AMD Ryzen 5 3500U / Neu,Minden,Nordrhein-Westfalen,52.2881045,8.9168852,eBay
"Apple MacBook Pro A1502 33,8 cm (13,3 Zoll) Laptop - ME864D/A (Oktober, 2013)",Burgwedel,Niedersachsen,52.5,9.86667,eBay
"Apple MacBook Pro 15"" A1398 2014 2015 BTO i7 2,5 GHz 16Gb Ô£ø 512Gb 2Gb GPU RETINA",Minden,Nordrhein-Westfalen,52.2881045,8.9168852,eBay
Lenovo Thinkpad T61,Ronnenberg,Niedersachsen,52.3166623,9.6532075,eBay
"Apple MacBook A1534 12 Zoll, Gold, 8 GB RAM, 512 GB Flashspeicher, Retina-Displ.",M√ºnster,Nordrhein-Westfalen,51.9625101,7.6251879,eBay
NotebookLaptop Asus R558U,Isernhagen,Niedersachsen,52.4531464,9.8348014,eBay
"Lenovo Legion Y540-17IRH-PG0 17,3 Zoll 1TBHDD, 256 GB SSD, Intel Core i5, GTX",Rheda-Wiedenbr√ºck,Nordrhein-Westfalen,51.8428202,8.2985615,eBay
"Apple MacBook Air A1465 11 Zoll Laptop, Mitte 2013, 1,3 GHz, 4 GB RAM, 128 GB",M√ºnster,Nordrhein-Westfalen,51.9625101,7.6251879,eBay
"APPLE MVVJ2D/A MacBook Pro, Notebook mit 16 Zoll Display, Core‚Ñ¢ i7 Prozessor, 16",M√ºnster,Nordrhein-Westfalen,51.9625101,7.6251879,eBay
"Newest Laptop Teclast F7S 14.1"" 1920x1080 IPS Notebook 8GB RAM 128GB ROM Laptops",Lehrte,Niedersachsen,52.3749334,9.9748557,eBay
"Newest Laptop Teclast F7S 14.1"" 1920x1080 IPS Notebook 8GB RAM 128GB ROM Laptops",Lehrte,Niedersachsen,52.3749334,9.9748557,eBay
"Ultrabook Dell Latitude E7240 Intel i5 4310U-2,0GHz 8GB-RAM 128SSD 12,5""HD WIN10",Hannover,Niedersachsen,52.3744779,9.7385532,eBay
"Dell Latitude E7470 Ultrabook, Intel I5-6300U mit 2,4GHz, 8GB Ram, 500GB SSD",Stuhr,Niedersachsen,53.027353,8.7497818,eBay
ASUS Laptop TUF Gaming FX705DY-AU047 Ryzen 5-3550H 8GB RAM 512GB SSD,Bad Salzuflen,Nordrhein-Westfalen,52.0857452,8.7534422,eBay
"Dell Latitude E5570 / 15,6""(39,6cm) i5-6300U 2x2,4GHz 8GB 500GB Laptop *NB-1002*",Andervenne,Niedersachsen,52.5103219,7.570672,eBay
Huawei MateBook 13 Zoll Notebook i7 8GB RAM 512GB SSD Win10H grau - Zustand gut,Bremen,Bremen,53.0758196,8.8071646,eBay
"ASUS ZenBook UX433FN-A6782T 14"" FHD / i7-8565U / 16GB / 512GB SSD / MX150 / Win",Weyhe,Niedersachsen,52.9821257,8.8495643,eBay
"### HP ProBook 640 G1 14"" Intel Core i5-4210M 2,60GHz 128GB SSD 8GB RAM ###",Bad Salzuflen,Nordrhein-Westfalen,52.0857452,8.7534422,eBay
"Lenovo ThinkPad X250 i5, 12,5"", 8GB, SSD , WIN10, Guter Zustand!",Hessisch Oldendorf,Niedersachsen,52.1698382,9.2506531,eBay
"Acer Aspire 5 A515 i5-8250U 15,6"" 16GB Optane + 12GB RAM 240GB SSD Win 10",Hannover,Niedersachsen,52.3744779,9.7385532,eBay
HP Gaming Pavilion 15-ec0155ng ,M√ºnster,Nordrhein-Westfalen,51.9625101,7.6251879,eBay
15.6 Zoll Laptop 4GB RAM 64GB SSD Intel Celeron J3160 Windows 10 Pro Computer mi,Lehrte,Niedersachsen,52.3749334,9.9748557,eBay
Acer Aspire E15 i7 7th Generation ,Hannover,Niedersachsen,52.3744779,9.7385532,eBay
"HP ZBook 15u G2, Core i7-5600U, 8GB RAM, 1TB SSD, FirePro M4170 (J8Z89ET#ABD)",Isernhagen,Niedersachsen,52.4531464,9.8348014,eBay
"Lenovo V340-17IWL intel 8. Gen. 17.3"" FullHD IPS, 8GB RAM, 256GB SSD, Win 10 Pro",Hannover,Niedersachsen,52.3744779,9.7385532,eBay
Lenovo G70-80 Notebook mit original Verpackung,Wietzen,Niedersachsen,52.7104614,9.0731435,eBay
"Lenovo ThinkPad L430 14 Zoll Intel Core i3 3.Gen, 2,50GHz 120GB SSD 8GB RAM",Extertal,Nordrhein-Westfalen,52.0906649,9.0947816,eBay
"Lenovo Yoga S740-14IIL Mica, 14"", Intel Core i7-1065G7, 512GB SSD, 16GB RAM, WIN",Steinhagen,Mecklenburg-Vorpommern,53.8436425,11.929235,eBay
15.6 Zoll Laptop 4GB RAM 64GB SSD Intel Celeron J3160 Windows 10 Pro Computer mi,Lehrte,Niedersachsen,52.3749334,9.9748557,eBay
"Notebook Lenovo Thinkpad T420s, 2.5-3.2GHz, 120GB SSD,5GBRam",H√∂velhof,Nordrhein-Westfalen,51.820814,8.658832,eBay
"DELL Latitude E7240 i5-4210U 1.70GHz 8GB RAM 128GB SSD 12,5"" Zoll HD W10P",M√ºnster,Nordrhein-Westfalen,51.9625101,7.6251879,eBay
Dell Latitude 5500 i5-8365U 8GB RAM 256GB SSD FULL HD,Hildesheim,Niedersachsen,52.1521636,9.9513046,eBay
"Lenovo ThinkPad X220 i5-2450M 4GB 12,5"" Laptop",Neuenkirchen-V√∂rden,Niedersachsen,52.51092115,8.09015851582962,eBay
"Apple MacBook Pro 15,4 Zoll 2,2 GHz - A1226 OVP",Bremen,Bremen,53.0758196,8.8071646,eBay
Toshiba Tecra A10-14M notebook laptop 15 zoll gebraucht WIN 10 Prof.,Eime,Niedersachsen,52.0746587,9.7232316,eBay
"Dell 3510 i7-6700HQ 15,6 Zoll Full HD IPS OHNE RAM OHNE AKKU OHNE HDD",Bad Iburg,Niedersachsen,52.1576093,8.0454627,eBay
Lenovo Thinkpad T61,Ronnenberg,Niedersachsen,52.3166623,9.6532075,eBay
"Dell Latitude E5540 i5-4200U 8GB RAM 120GB SSD, 190 GB HDD",Minden,Nordrhein-Westfalen,52.2881045,8.9168852,eBay
"Notebook Asus X93S 18,4 Zoll Display I5 CPU 2,4 Ghz , 4 GB Ram",Helpsen,Niedersachsen,52.30414035,9.131157923359668,eBay
"Apple MacBook Pro 13"" Laptop , 2017 - Funktioniert Einwandfrei! Displayfehler.",Hannover,Niedersachsen,52.3744779,9.7385532,eBay
"ASUS Core i5 2.40 GH , RAM 8 GB , HDD 1TB Notebook",Bremen,Bremen,53.0758196,8.8071646,eBay
"DESIGN ULTRABOOK HP ELITEBOOK 725 G3 CPU-4x3,2GHz 256SSD 8GB WEBCAM WIN10 1,26KG",Hannover,Niedersachsen,52.3744779,9.7385532,eBay
HP ProBook X360 440 G1 TOP!,Visselh√∂vede,Niedersachsen,52.9847596,9.5782553,eBay
"Lenovo ThinkPad Yoga 260 12,5"", i5-6300U # 8GB und 512GB SSD, Webcam",Steinhagen,Mecklenburg-Vorpommern,53.8436425,11.929235,eBay
"Lenovo Thinkpad 14"" Notebook T440, 8GB, 250GB SSD, i5-4300, Windows 10Pro",Wunstorf,Niedersachsen,52.4257979,9.4294425,eBay
Asus ZenBook Pro UX480FD 14 Zoll i5 8GB RAM 512GB Win10 blau - Akzeptabel,Bremen,Bremen,53.0758196,8.8071646,eBay
"CAD ZERTIFIZIERTES WORKSTATION DELL PRECISION M4700 i7-QUADRO 15,6""FHD SSD 16GB",Hannover,Niedersachsen,52.3744779,9.7385532,eBay
"Notebook HP Elitebook 8470p Intel Core i5-3320M 2,6GHz 8GB 256GB SSD HD+",Extertal,Nordrhein-Westfalen,52.0906649,9.0947816,eBay
Apple MacBook pro 13Zoll - 8GB Model 2020,Hamm,Nordrhein-Westfalen,51.6804093,7.815197,eBay
"Alienware M11X Intel Core Duo U7300 / 11,6"" / 8GB RAM / 250GB SSD / Win 10",Hannover,Niedersachsen,52.3744779,9.7385532,eBay
"Apple MacBook Pro Retina 13 Zoll Anfang 2015 16 GB Intel Core i5 2,7 GHz Iris",Bad Salzuflen,Nordrhein-Westfalen,52.0857452,8.7534422,eBay
"Apple MacBook Air 13,3 Zoll (128GB SSD, Intel Core i5 8. Gen., 1,60GHz, 8GB)...",Peine,Niedersachsen,52.3217849,10.2349489,eBay
hp omen gaming laptop,Elze,Niedersachsen,52.1187857,9.7386084,eBay
"ASUS ZenBook UX305CA-FC022T (13.3 Zoll, 250GB SSD, 8GB RAM) Windows 10 OVP",Wunstorf,Niedersachsen,52.4257979,9.4294425,eBay
"Apple MacBook Pro 15"" (2014) Core i7 2,2 GHz - Silber 256 GB SSD 16 GB #Akzep...",Bad Sassendorf,Nordrhein-Westfalen,51.5858518,8.1692402,eBay
"HP 250 G6 Intel core i5 7th Gen 39,6 cm (15,6‚Äù)",Garbsen,Niedersachsen,52.4276606,9.6005102,eBay
"Lenovo V110-14IAP Pentium N4200 Quad Core 8GB RAM 128GB SSD 14"" Display Laptop",Laatzen,Niedersachsen,52.3077423,9.8132829,eBay
"Lenovo Thinkpad T530 Intel i5 2,5Ghz 4Gb 320Gb 15.6"" 1600x900 Win7Pro DVD J74 B",Hannover,Niedersachsen,52.3744779,9.7385532,eBay
"Dell Precision 5510 i7 4x2.7 16GB 512GB SSD 15.6"" 4K 3840x2160 Touch Win 10 /AB",Hannover,Niedersachsen,52.3744779,9.7385532,eBay
"Microsoft Surface Book 1703 13"" i5-6300U 2.4GHz 8GB 128GB SSD Win 10 Pro B-Ware",Ennigerloh,Nordrhein-Westfalen,51.8359553,8.0255988,eBay
"ASUS ZenBook Flip UX360UA Intel Core i7 7500U 2,70GHz 256GB SSD 8GB RAM TOUCH",Schieder-Schwalenberg,Nordrhein-Westfalen,51.8973691,9.1782795,eBay
apple macbook a1342,Ibbenb√ºren,Nordrhein-Westfalen,52.2774772,7.7151417,eBay
HP EliteBook 840 G4 Full HD i5-7200U 8 GB RAM 128 GB SSD CAM 2. Wahl,Bad Iburg,Niedersachsen,52.1576093,8.0454627,eBay
"Macbook Pro 13 (late 2016), SpaceGray 8GB, 256GB neue Teile (siehe Text)",Paderborn,Nordrhein-Westfalen,51.7177044,8.752653,eBay
"Apple MacBook Pro A1286 39,1 cm (15,4 Zoll) Laptop - MC118D/A (Juni, 2009)",Syke,Niedersachsen,52.9131332,8.8198737,eBay
Originalverpackung von Apple MacBook Pro 16 Zoll. Nur Leerkarton. ,Bielefeld,Nordrhein-Westfalen,52.0191005,8.531007,eBay
"DESIGN ULTRABOOK HP ELITEBOOK FOLIO 1020 M-5Y71 2,9GHz SSD 8GB WEBCAM WIN10 FHD",Hannover,Niedersachsen,52.3744779,9.7385532,eBay
"Fujitsu Lifebook E752 Intel Core i5-3320M 2x 2,6GHz 15,6"" 8GB RAM 128GB SSD DVD",Bramsche,Niedersachsen,52.4076948,7.979647,eBay
"Lenovo Ultrapad Yoga 2 Pro 13,3"" Laptop QHD+ Touchscreen Intel Core i7 8GB 512GB",Schlo√ü Holte-Stukenbrock,Nordrhein-Westfalen,51.9017108,8.6353438,eBay
"Panasonic Toughbook CF-19 10,4 Zoll Notebook/Laptop Diagnoselaptop",Weyhe,Niedersachsen,52.9821257,8.8495643,eBay
"Apple MacBook Pro A1286 15,4-Zoll 2,4 GHz i7 16 GB RAM 250 GB SSD 750 GB HDD",Twistringen,Niedersachsen,52.7992604,8.6421452,eBay
"Lenovo V15-IIL 82C 15.6""/i3-1005G1/4/256SSD/NOOS",L√ºbbecke,Nordrhein-Westfalen,52.3027209,8.6183054,eBay
Lenovo Legion Y520 i5-7300HQ 8GB RAM 128GB SSD 1TB HDD schwarz - Zustand gut,Bremen,Bremen,53.0758196,8.8071646,eBay
"Lenovo (*FP*) S130-14IGM Intel Pentium Silver N5000 1,10GHz 128GB SSD 4GB Win 10",Delmenhorst,Niedersachsen,53.0528092,8.6294626,eBay
Lenovo Ideapad MIIX 510 80U10007UK - gebraucht komplett top,Gersten,Niedersachsen,52.5709728,7.4953102,eBay
Laptop Notebook  Fujitsu LIFEBOOK E Serie E756 * HDMI ,Hannover,Niedersachsen,52.3744779,9.7385532,eBay
ASUS Zenbook,Hannover,Niedersachsen,52.3744779,9.7385532,eBay
"Ultrabook Dell Latitude E7470 i5 6300U-3,0GHz 8GB-RAM 256SSD AKKU-TOP 14""HD+",Hannover,Niedersachsen,52.3744779,9.7385532,eBay
"notebook laptop Media Broadcarst 13,38 Zoll",Bevern,Schleswig-Holstein,53.7555192,9.7711499,eBay
"Teclast F7 Plus 14.1"" 8GB RAM 256GB SSD Laptop FULL HD 1920 x 1080 Intel Gemini ",Lehrte,Niedersachsen,52.3749334,9.9748557,eBay
"Teclast F7 Plus 14.1"" 8GB RAM 256GB SSD Laptop FULL HD 1920 x 1080 Intel Gemini ",Lehrte,Niedersachsen,52.3749334,9.9748557,eBay
Dell Precision M6500 17 Zoll Notebook/Laptop i7 MEGA GRAFIK 8GB RAM 500GB HDD *A,Hannover,Niedersachsen,52.3744779,9.7385532,eBay
HP ProBook 450 G2 Intel Core i5-4210U 1.7GHz 2.4GHz 8GB 500GB Win10 (*FP*),Delmenhorst,Niedersachsen,53.0528092,8.6294626,eBay
"Lenovo ThinkPad Yoga 260 12,5"", i5-6300U # 8GB und 512GB SSD, Webcam",Steinhagen,Mecklenburg-Vorpommern,53.8436425,11.929235,eBay
"Lenovo ThinkPad Yoga 260 12,5"", i5-6300U # 8GB und 512GB SSD, Webcam",Steinhagen,Mecklenburg-Vorpommern,53.8436425,11.929235,eBay
"Ultrabook Dell Latitude E7250 Intel i5 5300U-2,3GHz 8GB-RAM 128SSD 12,5""HD WIN10",Hannover,Niedersachsen,52.3744779,9.7385532,eBay
"Wundersch√∂nes wei√ües Asus F551M Quad Core 15,6"" 8GB RAM, 120GB SSD / Akku NEU",Garbsen,Niedersachsen,52.4276606,9.6005102,eBay
MacBook Pro Retina 13‚Äú Ende 2013 / Beschreibung lesen,Georgsmarienh√ºtte,Niedersachsen,52.2,8.05,eBay
"Dell Latitude E5570  i5-6300U, 8GB, 256GB SSD, 15.6'' Full HD, LTE,  Win 10 Pro",Hilgermissen,Niedersachsen,52.8438757,9.1571369,eBay
Dell XPS L502 i7  250 GB SSD,Diepholz,Niedersachsen,52.6113677,8.372661,eBay
Huawei MateBook 13 Zoll i5-8265U 8GB RAM 256GB SSD Notebook - Zustand gut,Bremen,Bremen,53.0758196,8.8071646,eBay
"Asus T300CHI (Intel Core-M-5Y10, 1,1GHz, 8GB RAM, 128GB SSD)",Hamm,Nordrhein-Westfalen,51.6804093,7.815197,eBay
"Apple MacBook Pro 15,4-Zoll / IntelCore i7 / Oktober 2011",Hannover,Niedersachsen,52.3744779,9.7385532,eBay
"MSI Gaming Notebook GL62M 7REX GTX 1050ti Intel Core i5-7300HQ 2,5GHz 8GB RAM",Hamm,Nordrhein-Westfalen,51.6804093,7.815197,eBay
"TOP Laptop Acer Aspire E17 E5-731 17,3"" Zoll 8GB 1TB HDD Win 10",Hannover,Niedersachsen,52.3744779,9.7385532,eBay
"HP 250 G7 Intel core i5 8th Gen 39,6 cm (15,6‚Äù)",Garbsen,Niedersachsen,52.4276606,9.6005102,eBay
"Dell Latitude E6420, i5-2520M, 8GB RAM, 1TB HDD, W 10-Pro installiert, kein NT ",Beckum,Nordrhein-Westfalen,51.7555148,8.041135,eBay
"Top Gamer Notebook OMEN HP 17-an104ng 17,3 Zoll, Intel i7-8750H, 6x 2.20GHz, GTX",Steinhagen,Mecklenburg-Vorpommern,53.8436425,11.929235,eBay
"Huawei MateBook 13 13 Zoll (512GB SSD, AMD Ryzen 5 3500U, 2,1GHz, 8GB RAM)...",H√∂velhof,Nordrhein-Westfalen,51.820814,8.658832,eBay
DELL Inspiron Mini 1011 Netbook,Emmerthal,Niedersachsen,52.0460661,9.3834887,eBay
Lenovo ThinkPad T420  4236-DE1 WIN 10 Pro SSD i5 4GB DOCKING,Detmold,Nordrhein-Westfalen,51.936284,8.8791526,eBay
Asus Transformer Pad TF 103 CG,Holle,Niedersachsen,52.0872985,10.1605747,eBay
"Panasonic Toughbook CF-54 14"" i5 2,3GHz 8GB 1TB SSD Full-HD ""Touch"" Win10 Pro",Ennigerloh,Nordrhein-Westfalen,51.8359553,8.0255988,eBay
Gaming Laptop Schenker XMG A726 NBB-Edition inkl. BATTLEBORN,Coppenbr√ºgge,Niedersachsen,52.1202595,9.5493252,eBay
"HP Envy 15-k031ng, 15,6"" FHD TOUCH, 12GB RAM, GTX 850M/4GB, i7-4510U, 1TB SSHD",Kalefeld,Niedersachsen,51.8,10.0333,eBay
"Apple MacBook Pro 13"" ¬†,von 2017 - i5/2,3Ghz/8GB/128GB -space grey-",Verden,Niedersachsen,52.922341,9.228153,eBay
"Sony VAIO 11.6""  VPCYB1S1E   AMD¬Æ E-350 - 120GB SSD - 4GB RAM - Windows 7",Boffzen,Niedersachsen,51.7510044,9.3965915,eBay
Lenovo ideapad 320-15ast,Bielefeld,Nordrhein-Westfalen,52.0191005,8.531007,eBay
"Notebook/Laptop aser Intel Core i3-M370 2x2,4GHz PC3-4GB SATA-500GB ",Horn-Bad Meinberg,Nordrhein-Westfalen,51.8801277,8.9731695,eBay
"Toshiba Satellite L855-11T Intel i5 2,5Ghz 15,6"" LCD 1366x768 Glanz",Bad Lippspringe,Nordrhein-Westfalen,51.7833,8.81667,eBay
"DELL Latitude E5520 (Core i5 2520m - 4 GB - 320 GB HDD - 15,6"" WXGA)",Hannover,Niedersachsen,52.3744779,9.7385532,eBay
Lenovo Convertible Chromebook Thinkpad Yoga 11e Tablet,M√ºnster,Nordrhein-Westfalen,51.9625101,7.6251879,eBay
Acer Swift 1 SF114-32-P4QM Full-HD HDMI Windows 10 Tastaturbeleuchtung ,Hemmingen,Niedersachsen,52.3167,9.75,eBay
Acer Predator Helios 300 Ph315-51-76p5 Gaming Laptop in OVP + Laptopst√§nder,Emsdetten,Nordrhein-Westfalen,52.174687,7.5301756,eBay
"Fujitsu LifeBook E782 gebr. Core i5-3210M, 120GB SSD, 8GB RAM",Bad Salzuflen,Nordrhein-Westfalen,52.0857452,8.7534422,eBay
"MEDION Notebook MD63640 AMD Athlon300U,15,6"" Full HD IPS, 8GB, 256GB, Neuwertig",Lemgo,Nordrhein-Westfalen,52.0280674,8.9012894,eBay
Lenovo Yoga 510 - Intel Core i5 - 512GB SSD - Top Zustand - Touchscreen Full hd,Hatten,Grand Est,48.9012785,7.9757435,eBay
"Dell Latitude E6530 15"" HD+ Notebook Intel Core i5 2,6GHZ 256GB SSD 8GB WWAN",Hannover,Niedersachsen,52.3744779,9.7385532,eBay
"Sony VAIO SVF15 15.5""  Pentium¬Æ 2117U - 750GB HDD - 6GB RAM - Windows 10 Pro",Boffzen,Niedersachsen,51.7510044,9.3965915,eBay
Lenovo ThinkPad T410 (2.53GHz - 4 GB - 320 GB HDD - WXGA+ 1440x900 Pixel),Hannover,Niedersachsen,52.3744779,9.7385532,eBay
HP Compaq Laptop nx7400 Notebook inkl. HP original Netzteil¬†- UBUNTU,M√ºnster,Nordrhein-Westfalen,51.9625101,7.6251879,eBay
Laptop Fujitsu Lifebook S792 * i7-3632QM *8 GB RAM *256 GB SSD *Dockingstation,Bremen,Bremen,53.0758196,8.8071646,eBay
"Lenovo Yoga C740 - Intel Core i7-10510U, 16GB RAM, 1TB SSD, wie neu! Inkl. Stift",Paderborn,Nordrhein-Westfalen,51.7177044,8.752653,eBay
Lenovo ThinkPad L470 20JU-000SGE i5-6200U 8GB 256GB SSD Win10 - 2x Lenovo Dock,Langenhagen,Niedersachsen,52.443118,9.738994,eBay
"Panasonic CF-54 14"" i5-5300U 2,3GHz 8GB 1TB SSD Full-HD ""Touch"" W10 Pro ""Bundle""",Ennigerloh,Nordrhein-Westfalen,51.8359553,8.0255988,eBay
"Dell Latitude Tablet 7275 12,5"" (31,8cm) Core m5-6Y57 2x1,1GHz 8GB 256GB SSD K_5",Andervenne,Niedersachsen,52.5103219,7.570672,eBay
"Apple MacBook Pro 2019 (13 Zoll, Intel Core i5, 8GB RAM, 256GB SSD, Touch Bar)",Lehrte,Niedersachsen,52.3749334,9.9748557,eBay
"ACER ASPIRE 7741ZG / 17,3"" Intel Core i7 Turbo Boost 3,33GHz  SSD TOP!!!",Lippstadt,Nordrhein-Westfalen,51.6747074,8.347194,eBay
"DESIGN ULTRABOOK HP ELITEBOOK 725 G3 CPU-4x3,2GHz 128SSD 8GB WEBCAM WIN10 1,26KG",Hannover,Niedersachsen,52.3744779,9.7385532,eBay
15.6 Zoll Laptop 4GB RAM 64GB SSD Intel Celeron J3160 Windows 10 Pro Computer mi,Lehrte,Niedersachsen,52.3749334,9.9748557,eBay
"Sony VAIO 15.5"" VPCEH  NVidia 410M/Pentium B940/500GB HDD/4GB RAM/Win10 + Tasche",Boffzen,Niedersachsen,51.7510044,9.3965915,eBay
"Lenovo IdeaTab S6000L  10""  ",Detmold,Nordrhein-Westfalen,51.936284,8.8791526,eBay
"HP EliteBook 2570P I7 3520M 2,9Ghz 180GB 4 GB RAM 13.4`Zoll WIN10Pro",Bremen,Bremen,53.0758196,8.8071646,eBay
"Dell Latitude E6520 15"" HD+ Notebook Intel Core i5 2,4GHZ 128GB SSD 8GB WWAN",Hannover,Niedersachsen,52.3744779,9.7385532,eBay
Apple MacBook Pro 13,Horn-Bad Meinberg,Nordrhein-Westfalen,51.8801277,8.9731695,eBay
Fujitsu Lifebook U727 Full HD Touch Intel i7-7500U 16GB RAM 256GB SSD Win 10 Pro,M√ºnster,Nordrhein-Westfalen,51.9625101,7.6251879,eBay
"HP EliteBook 840 G1 / 14""(35,6cm) i5-4300U 2x 1,90GHz 8GB 240GB Laptop *NB-1102*",Andervenne,Niedersachsen,52.5103219,7.570672,eBay
"HP EliteBook 840 G1 / 14""(35,6cm) i5-4300U 2x 1,90GHz 8GB 500GB Laptop *NB-1077*",Andervenne,Niedersachsen,52.5103219,7.570672,eBay
"ASUS TUF Gaming FX505DV-HN311T Notebook 15,6"" Ryzen 7 16GB RAM 512GB SSD RTX2060",Bremen,Bremen,53.0758196,8.8071646,eBay
"Dell Latitude E6330 13,3 Zoll i7-3520M 2x2,90GHz 8GB 128GB SSD HD WWAN",Extertal,Nordrhein-Westfalen,52.0906649,9.0947816,eBay
"Fujitsu Siemens Amilo Li3910 / 18,4 Zoll / 2,2 GHz Dual Core / 120 GB SSD HDD",Helpsen,Niedersachsen,52.30414035,9.131157923359668,eBay
"LENOVO IdeaPad S205, 8 GB RAM, 240 GB SSD, 11,6‚Äú, Windows, Tasche",Wardenburg,Niedersachsen,53.0654681,8.1945038,eBay
"Apple MacBook Pro 13 Zoll 2017 A1708 i5 2,3 GHz 8 GB 256 GB SSD TC + DISPLAY NEU",Porta Westfalica,Nordrhein-Westfalen,52.2394431,8.924762,eBay
"toschiba S5-15T Core duo¬† 2x1,80 Ghz",Hannover,Niedersachsen,52.3744779,9.7385532,eBay
"LENOVO Thinkpad T60, 250GB",Hildesheim,Niedersachsen,52.1521636,9.9513046,eBay
"Apple MacBook A1534 Space Gray 1,3GHz/8GB/512GB SSD ‚Äì neue Batterie!",Lehrte,Niedersachsen,52.3749334,9.9748557,eBay
"HP EliteBook 8470p / 14"" (35,6cm) i5-3320M 2x 2,60GHz 8GB 320GB Laptop *NB-1089*",Andervenne,Niedersachsen,52.5103219,7.570672,eBay
Targa Traveller 1016  Notebook,Bielefeld,Nordrhein-Westfalen,52.0191005,8.531007,eBay
"Lenovo G700 Laptop, Intel Core i5, Geforce GT720m, 500gb SSD, Akku Defekt",Lemgo,Nordrhein-Westfalen,52.0280674,8.9012894,eBay
"Panasonic CF-54 14"" i5-5300U 2,3GHz 8GB 1TB SSD FHD ""Touch"" Win10 Pro ""B-Ware""",Ennigerloh,Nordrhein-Westfalen,51.8359553,8.0255988,eBay
"Notebook Acer Extensa 15, 15,6 "" Display, Intel N3050, 4GB RAM, 240GB SSD",Steinfeld,Schleswig-Holstein,54.599224,9.74639,eBay
"HP Notebook 17,3 Zoll,17-y50ng,8GB Ram,1 TB HDD,AMD A10 Quad Core,Akku noch gut",Hofgeismar,Hessen,51.4997017,9.379913531820963,eBay
Lenovo ThinkPad T590 Intel Core i7 8. Gen.,Bremen,Bremen,53.0758196,8.8071646,eBay
"ANGEBOT HP Notebook 15,6"" AMD A10-9620P 4x 2,50GHz Radeon R5 + 535DX 8GB RAM 1TB",Schieder-Schwalenberg,Nordrhein-Westfalen,51.8973691,9.1782795,eBay
"LENOVO Carbon X1 3. Gen, Intel i7, 8 GB RAM, 240 GB SSD, Windows 10 Pro Notebook",Seelze,Niedersachsen,52.3964639,9.594287,eBay
HP Pavilion Notebook - 15-ab008ng - i5-5200U 8 GB RAM GeForce 940M 4 GB SSHD 1TB,Bremen,Bremen,53.0758196,8.8071646,eBay
"Apple MacBook Air wenig Benutzt 33,8 cm (13,3 Zoll) Laptop  ( 2015) 128GB HDD",R√ºthen,Nordrhein-Westfalen,51.4911392,8.4330329,eBay
Lenovo Thinkpad T460 Intel Core i5-6300U 8GB RAM 256GB SSD Full HD IPS W10P B-Wa,M√ºnster,Nordrhein-Westfalen,51.9625101,7.6251879,eBay
"Lenovo B550 Intel Pentium  15,6 Zoll Linux Zorin",Springe,Niedersachsen,52.2099318,9.5581577,eBay
HP Elitebook 8470P Laptop 4GB RAM 256GB Samsung SSD 500GB Fujitsu HDD ,Hamm,Nordrhein-Westfalen,51.6804093,7.815197,eBay
"Lenovo ThinkPad T460p 14"" Full HD IPS QuadCore i5-6440HQ WWAN 4GB RAM 500GB HDD ",M√ºnster,Nordrhein-Westfalen,51.9625101,7.6251879,eBay
"Acer Aspire E1-771 17,3"" Intel Core i3-3110M CPU @ 2.40GHz - 8GB RAM Windows 10",Stuhr,Niedersachsen,53.027353,8.7497818,eBay
"Toshiba Satellite Pro S300L | 250GB¬† | 2,87GB RAM| Windows 10 x32",Greven,Nordrhein-Westfalen,52.0929254,7.6120326,eBay
"Lenovo ThinkPad T410i / 14,1"" (35,8cm) i5-M450 2x 2,4GHz 4GB 160GB Laptop *1414*",Andervenne,Niedersachsen,52.5103219,7.570672,eBay
"Trekstore Surftab 11,6 ST432-2c",Hamm,Nordrhein-Westfalen,51.6804093,7.815197,eBay
"HP EliteBook 8470p / 14"" (35,6cm) i5-3340M 2x 2,70GHz 8GB 320GB Laptop *NB-1081*",Andervenne,Niedersachsen,52.5103219,7.570672,eBay
"12,1"" Lenovo ThinkPad X61_Core2Duo_4GB_120GB SSD_Win10pro_Akku 2,5h_TOP",Blomberg,Nordrhein-Westfalen,51.9424313,9.0919013,eBay
"13"" Apple MacBook Air 6,2 i7 4650U @ 1,7GHz 8GB 512GB SSD Webcam Mid 2013",Bremen,Bremen,53.0758196,8.8071646,eBay
HP Pavilion dv7-6025eg Notebook Windows 10 Intel Core i7 240GB SSD 6GB Ram ,Bad Gandersheim,Niedersachsen,51.8704732,10.0297839,eBay
Acer Aspire 7 A715-75G-547K - Intel Core i5 Prozessoren der 10. Generation,Wedemark,Niedersachsen,52.5622873,9.7037034,eBay
"Apple Mac Book Pro 13"", Model 2011",Bremen,Bremen,53.0758196,8.8071646,eBay
"Apple MacBook Pro 9,1 A1286 / 15,4""(39,1cm) i7-3615QM 4x2,3GHz 8GB 256GB*NA-272*",Andervenne,Niedersachsen,52.5103219,7.570672,eBay
"FUJITSU Esprimo X9510 /15,4"" / Win10 Pro 64Bit / 250 GB / 4 GB ",Hildesheim,Niedersachsen,52.1521636,9.9513046,eBay
"Lenovo Thinkpad X1 Carbon 14"" HD+ Notebook Intel Core i5-3317U 128GB SSD W10Pro",Hannover,Niedersachsen,52.3744779,9.7385532,eBay
"Microsoft Surface Pro 12,3 Zoll (Intel Core i5 7 Gen; 2.6 GHz, 8 GB Ram, 128 GB)",Paderborn,Nordrhein-Westfalen,51.7177044,8.752653,eBay
"Thinkpad Yoga 260 i5, 8GB, 4G-LTE, inkl. OneLink Dock",Drensteinfurt,Nordrhein-Westfalen,51.7972657,7.7418147,eBay
Lenovo IdeaPad MIIX 520-12IKB LTE Intel i5 8th Gen. 256GB SSD 8GB RAM Win 10 Pro,M√ºnster,Nordrhein-Westfalen,51.9625101,7.6251879,eBay
"Apple MacBook Pro Retina 15"" Anfang 2013 Core i7 2,7 GHz 16GB RAM 512GB SSD 650M",M√ºnster,Nordrhein-Westfalen,51.9625101,7.6251879,eBay
gut erhaltener Lenovo Laptop X61 mit 4GB RAM und Zubeh√∂r,Bielefeld,Nordrhein-Westfalen,52.0191005,8.531007,eBay
"Apple MacBook Pro 15"" 2011  i7 2.2 Ghz  8GB RAM  500GB SSD 1 Jahr Gew√§hrleistung",Seesen,Niedersachsen,51.8905566,10.1703902,eBay
"### Lenovo N500 WLAN Webcam T7700 2x 2,4GHz HDMI 15,4"" T7700 4GB DVDRW ###",Bad Salzuflen,Nordrhein-Westfalen,52.0857452,8.7534422,eBay
"HP Pro x2 612 G1 12,5‚Äú Tablet / Notebook, IPS-Display, Intel i5, 256GB SSD, 8GB ",Bremen,Bremen,53.0758196,8.8071646,eBay
"Sony Vaio SVF152C29m 15,6Zoll Laptop Notebook",Detmold,Nordrhein-Westfalen,51.936284,8.8791526,eBay
"Lenovo IdeaPad 330 15,6 Zoll (1TB, Intel Celeron N, 2,60GHz, 4GB) Laptop -...",Lienen,Nordrhein-Westfalen,52.1467353,7.9747711,eBay
> Apple iPad 7.Gen (2019) 10.2'' 128GB Space Gray WIFI + Cellular LTE Tablet,Wedemark,Niedersachsen,52.5622873,9.7037034,eBay
Lenovo ThinkPad L460 14 Zoll Intel Pentium 4405U 6.Gen 2x 2.10GHz 500GB 4GB HD,Extertal,Nordrhein-Westfalen,52.0906649,9.0947816,eBay
"Notebook Acer Aspire E5-573 15,6"" Display Intel Core i3-5005U 4GB RAM 240GB SSD",Steinfeld,Schleswig-Holstein,54.599224,9.74639,eBay
"Apple MacBook Pro 13.3 Zoll 500GB HDD, Intel Core i5-3210M, 2.5GHz, 4GB DDR3 TOP",Ganderkesee,Niedersachsen,53.0344984,8.5451469,eBay
"Acer Aspire Switch SW3-13 Intel Quad-Core Z3735F 4x1,3(1,86)GHz,2 GB Ram,Win10H",Hannover,Niedersachsen,52.3744779,9.7385532,eBay
"Huawei MediaPad T5 - 25,6 cm (10.1 Zoll) - 1920 x 1200 Pixel - 64 GB - 4 GB",Wedemark,Niedersachsen,52.5622873,9.7037034,eBay
HP 250 G7 - Intel Core i5 Prozessoren der 10. Generation - 1 GHz (197T7EA#ABD),Wedemark,Niedersachsen,52.5622873,9.7037034,eBay
"Lenovo G770, 17'', Intel Core i3, 8 GB RAM, 480 GB SSD, sehr guter Zustand",Lilienthal,Niedersachsen,53.1414124,8.90677,eBay
"HP Elitebook 2760P 12,1"" Convertible Touch Core i7-2620M 8GB Ram 500GB HDD Win10",Hannover,Niedersachsen,52.3744779,9.7385532,eBay
"DELL Inspiron 15,6"" FHD i5-8265U 8GB 2TB HDD GeForce MX150 Win10 - AKKU NEU -",Rheda-Wiedenbr√ºck,Nordrhein-Westfalen,51.8428202,8.2985615,eBay
Apple MacBook Pro M1 13'' 8 Core 8 GB 512 GB spacegrau - Notebook - 512 GB,Wedemark,Niedersachsen,52.5622873,9.7037034,eBay
"Apple MacBook Air 13 Zoll (33,78cm) 1,1GHz i3 8GB RAM 512GB SSD Silver QWERTY",Bothel,England,54.740692,-3.2729878,eBay
"MacBook Pro 15 2015 Retina 3,40GHz,16GB RAM 1TB SSD,Display NEU",Horn-Bad Meinberg,Nordrhein-Westfalen,51.8801277,8.9731695,eBay
"Notebook Acer Aspire 3820TZG*13,3 Zoll*Core i5 2,4*4GB RAM*250GB HDD*WLANn*ATI*",B√ºckeburg,Niedersachsen,52.2611037,9.0488959,eBay
"Huawei MediaPad M5 Lite - 25,6 cm (10.1 Zoll) - 1920 x 1200 Pixel - 32 GB",Wedemark,Niedersachsen,52.5622873,9.7037034,eBay
"HP 250 G7 213Z1ES/15,6'' FHD, Intel i3-1005G1 8GB RAM, 256GB SSD, DVD, Windows",Wedemark,Niedersachsen,52.5622873,9.7037034,eBay
"Apple Macbook Pro 15"" 2012, leicht defekt, funktionst√ºchtig, neue SSD",Bad Oeynhausen,Nordrhein-Westfalen,52.2014399,8.7981244,eBay
"DELL Latitude E5540 Intel i5-4310 4GB RAM 128GB SSD 15,4"" Full HD Windows 10 Pro",M√ºnster,Nordrhein-Westfalen,51.9625101,7.6251879,eBay
"Surface Book 2 - 15"" - i7 - 16 GB - 256 GB - GTX 1060 6GB - Austauschger√§t - OVP",Paderborn,Nordrhein-Westfalen,51.7177044,8.752653,eBay
"Sony Vaio Multiflip i5-4200U / 15,5"" / 240GB SSD / Ultrabook / Convertible",Hannover,Niedersachsen,52.3744779,9.7385532,eBay
"Apple MacBook Pro A1286 (15,4 Zoll) Intel Core 2 Duo 2,53GHz 4GB RAM - 240GB SSD",Hamm,Nordrhein-Westfalen,51.6804093,7.815197,eBay
"Apple MacBook Pro 13 Zoll 2016 2,9GHz i5 16GB 256GBHDD Touchbar",Enger,Nordrhein-Westfalen,52.1394015,8.5588818,eBay
"Laptop Acer Aspire Timeline X 4820TG 256GB SSD 14"" WIN10",Bad Salzuflen,Nordrhein-Westfalen,52.0857452,8.7534422,eBay
"HP 470 G7 8VU25EA 17,3'' FHD IPS, Intel i7-10510U 8GB RAM, 256GB SSD, Radeon",Wedemark,Niedersachsen,52.5622873,9.7037034,eBay
"Dell Latitude D830 - Au√üergew√∂hnlich gut erhaltener Businesslaptop, viel Zubeh√∂r",Stadthagen,Niedersachsen,52.3289688,9.2053496,eBay
"HP Stream 13"" Intel Celeron N2840 2 x 2.16GHz blau 32GB SSD 2GB RAM Win10 Laptop",Schieder-Schwalenberg,Nordrhein-Westfalen,51.8973691,9.1782795,eBay
"Lenovo YOGA 720-13IKB TOUCH Core i5-8250U 1,60GHz Turbo 3,40GHz 13,3"" 256GB SSD",Schieder-Schwalenberg,Nordrhein-Westfalen,51.8973691,9.1782795,eBay
"Lenovo ThinkPad E15 - Intel Core i5 Prozessoren der 10. Generation - 1,6 GHz",Wedemark,Niedersachsen,52.5622873,9.7037034,eBay
"HP EliteBook 840 G1 / 14""(35,6cm) i5-4300U 2x 1,90GHz 8GB 500GB Laptop *NB-1070*",Andervenne,Niedersachsen,52.5103219,7.570672,eBay
"Terra Laptop 17,3 Zoll terra mobile 1774",Minden,Nordrhein-Westfalen,52.2881045,8.9168852,eBay
Lenovo Legion 5 15ARH05 82B5 - Ryzen 5 4600H 3 GHz - 3 GHz - 512 GB,Wedemark,Niedersachsen,52.5622873,9.7037034,eBay
Dell Latitude E630 14 Zoll  320 GB  3GB RAM Window 7 Pro,L√∂hne,Nordrhein-Westfalen,52.1990346,8.7141587,eBay
"HP Notebook 15-dw1001ng FHD, Intel Core i7-10510U, 16GB RAM, 512GB, Webcam, W10",Rheda-Wiedenbr√ºck,Nordrhein-Westfalen,51.8428202,8.2985615,eBay
"TERRA MOBILE 1470 - Intel Core i5 Prozessoren der 10. Generation - 1,6 GHz",Wedemark,Niedersachsen,52.5622873,9.7037034,eBay
Dell Latitude E6410 14 Zoll i5 8GB RAM 500GB HDD Windows 7 DVD-RW A Ware,Hannover,Niedersachsen,52.3744779,9.7385532,eBay
ASUS F509JA-EJ794T i3 8 I rd W10H| 90NB0QE4-M16660 - rot,Wedemark,Niedersachsen,52.5622873,9.7037034,eBay
HP Stream 14 Ax002-ng Netbook Laptop inkl. HP Tasche & 128 GB üî•SanDisk Ultra üòé,Hannover,Niedersachsen,52.3744779,9.7385532,eBay
Lenovo Thinkpad T540p i5-4210M 8GB RAM 500GB HDD,Bielefeld,Nordrhein-Westfalen,52.0191005,8.531007,eBay
Roda Rocky II+ // Outdoor Laptop mit Zubeh√∂r // Akku // KFZ Netzteil // Milit√§r,Trendelburg,Hessen,51.5735429,9.4224672,eBay
"Lenovo ThinkPad X1 Yoga 2nd 14"" Full HD IPS Core i5-7300U 8GB 256GB SSD Win10Pro",M√ºnster,Nordrhein-Westfalen,51.9625101,7.6251879,eBay
"NEU HP 8GB RAM, 256GB SSD, Notebook Readytogo Windows 10, 15.6""HD Celeron N4020",Hannover,Niedersachsen,52.3744779,9.7385532,eBay
"toshiba satellite L650-1N8, Intel Core i5, 4GB Ram, 500GB HDD, Blu-Ray Laufwerk",Twistringen,Niedersachsen,52.7992604,8.6421452,eBay
"ASUS ZenBook 14 UM431DA-AM011T - AMD Ryzen 5 - 2,1 GHz - 35,6 cm (14 Zoll)",Wedemark,Niedersachsen,52.5622873,9.7037034,eBay
"Asus EeePC 1000H, 2 GB RAM, 10‚Äú, orig. DVD, Windows, Handbuch",Wardenburg,Niedersachsen,53.0654681,8.1945038,eBay
15.6 Zoll Laptop 4GB RAM 64GB SSD Intel Celeron J3160 Windows 10 Pro Computer mi,Lehrte,Niedersachsen,52.3749334,9.9748557,eBay
"HP ProBook BND_9CB53ES_6GQ-01090 - 15,6'' Notebook - Core i5 Mobile 39 cm",Wedemark,Niedersachsen,52.5622873,9.7037034,eBay
"Lenovo ThinkPad X1 Yoga 2nd 14"" Full HD IPS Core i5-7300U 8GB 256GB SSD Win10Pro",M√ºnster,Nordrhein-Westfalen,51.9625101,7.6251879,eBay
"NEU HP 8GB RAM, 256GB SSD, Notebook Readytogo Windows 10, 15.6""HD Celeron N4020",Hannover,Niedersachsen,52.3744779,9.7385532,eBay
"toshiba satellite L650-1N8, Intel Core i5, 4GB Ram, 500GB HDD, Blu-Ray Laufwerk",Twistringen,Niedersachsen,52.7992604,8.6421452,eBay
"ASUS ZenBook 14 UM431DA-AM011T - AMD Ryzen 5 - 2,1 GHz - 35,6 cm (14 Zoll)",Wedemark,Niedersachsen,52.5622873,9.7037034,eBay
"Asus EeePC 1000H, 2 GB RAM, 10‚Äú, orig. DVD, Windows, Handbuch",Wardenburg,Niedersachsen,53.0654681,8.1945038,eBay
Acer SF514-55GT-72L0 i7 16 N bu W10H| NX.HXAEV.003 - Core i7 - 512 GB,Wedemark,Niedersachsen,52.5622873,9.7037034,eBay
"Dell XPS 17 9700 - 17'' Notebook - Core i5 4,5 GHz 43 cm (BND_81XHT_QQ2-00928)",Wedemark,Niedersachsen,52.5622873,9.7037034,eBay
"Acer 15 (EX215-52-50SH)/15,6'' Full HD, Intel i5-1035G1 8GB RAM, 512GB SSD,",Wedemark,Niedersachsen,52.5622873,9.7037034,eBay
"HP ZBook 15 G3 i7-6700HQ 4x 2,60GHz 512GB M.2 32GB Quadro M2000M TB FP BT W10",Bad Salzuflen,Nordrhein-Westfalen,52.0857452,8.7534422,eBay
Dell Latitude E6410 14 Zoll i5 8GB RAM 250GB HDD Windows 7 DVD-RW A Ware,Hannover,Niedersachsen,52.3744779,9.7385532,eBay
"Gaming Alienware M14X R2 i7-3630QM 14"" / 12GB RAM / 256GB SSD +1TB HDD",Hannover,Niedersachsen,52.3744779,9.7385532,eBay
"Lenovo L460, i3-6100, 1920x1080, 8GB, 480GB SSD, Windows 10 Pro, Zubeh√∂r",Wunstorf,Niedersachsen,52.4257979,9.4294425,eBay
"HP ProBook BND_6HM70ES_6GQ-01090 - 15,6'' Notebook - Core i7 Mobile 39 cm",Wedemark,Niedersachsen,52.5622873,9.7037034,eBay
Acer Aspire 3 A317-52-53EA - Intel Core i5 Prozessoren der 10. Generation,Wedemark,Niedersachsen,52.5622873,9.7037034,eBay
"Huawei MateBook D 14 WAQ9AR 35,56cm (14,0'') IPS, Ryzen 5 3500U 8GB RAM, 256GB",Wedemark,Niedersachsen,52.5622873,9.7037034,eBay
Lenovo ThinkBook 14s Yoga G1 14.0'' i5-1035G1 8/256GB FHD W10P - Notebook,Wedemark,Niedersachsen,52.5622873,9.7037034,eBay
"NEU HP 8GB RAM 256GB SSD, Notebook Windows 10, 15.6""HD Celeron N4020, Readytogo",Hannover,Niedersachsen,52.3744779,9.7385532,eBay
"DELL Latitude E5540 Intel i5-4310 4GB RAM 128GB SSD 15,4"" Full HD Windows 10 Pro",M√ºnster,Nordrhein-Westfalen,51.9625101,7.6251879,eBay
TERRA MOBILE 1715VMSO - Notebook - Core i5 Mobile (1220704),Wedemark,Niedersachsen,52.5622873,9.7037034,eBay
"Fujitsu Esprimo Mobile V6535  2,2GHz  1GB RAM,150GB HDD  Notebook",Bielefeld,Nordrhein-Westfalen,52.0191005,8.531007,eBay
HP ENVY 13-ah0004ng 1.60GHz i5-8250U Intel Core i5 (4JS66EA),Wedemark,Niedersachsen,52.5622873,9.7037034,eBay
ASUS F509JA-EJ602 i5 8 I sr noOS| 90NB0QE1-M16700 - Core i5 - 8 GB,Wedemark,Niedersachsen,52.5622873,9.7037034,eBay
ASUS F201E-KX063H Notebook,Hannover,Niedersachsen,52.3744779,9.7385532,eBay
"Dell R8K5D?B2C - 15,6'' Notebook - Core i5 2,5 GHz 39,6 cm",Wedemark,Niedersachsen,52.5622873,9.7037034,eBay
"Laptop, Dell Latitude E5410, i5-2,67 GHz, 4GB RAM, 256 GB SSD, Windows 10",Bremen,Bremen,53.0758196,8.8071646,eBay
" Lenovo G50-45 80E3 mit 15,6 Zoll, 8gb RAM",Lemgo,Nordrhein-Westfalen,52.0280674,8.9012894,eBay
HONEYWELL RT10-VD - Honeywell - RT10 - Schwarz,Wedemark,Niedersachsen,52.5622873,9.7037034,eBay
Acer Aspire 5 A515-55G-562Z - Intel Core i5 Prozessoren der 10. Generation,Wedemark,Niedersachsen,52.5622873,9.7037034,eBay
Dell Xps M1710 Gaming Laptop (Kult) TOP Zustand und 100% OK mit vielen Extras !!,Beckum,Nordrhein-Westfalen,51.7555148,8.041135,eBay
"Lenovo ThinkPad L430 14 Zoll Intel Core i3 3.Gen, 2,40GHz 250GB HDD 4GB RAM",Extertal,Nordrhein-Westfalen,52.0906649,9.0947816,eBay
Acer Predator PT315-52-73S0 - Intel Core i7 Prozessoren der 10. Generation,Wedemark,Niedersachsen,52.5622873,9.7037034,eBay
"Dell Latitude E4310 i5 520 M Notebook 4 x 2,4Ghz  4GB DDR 3 plus Dockingstation ",M√ºnster,Nordrhein-Westfalen,51.9625101,7.6251879,eBay
"wie NEU Dell Vostro 5568 15,6"" i7-7500U 256GB SSD + 1TB HDD / 16GB RAM",Hannover,Niedersachsen,52.3744779,9.7385532,eBay
HP Chromebook x360 14 G1 Full HD IPS Touch Intel i7-8650U Quad-Core 16GB RAM 64G,M√ºnster,Nordrhein-Westfalen,51.9625101,7.6251879,eBay
Acer Aspire 3 A315-51-39US mit Windows 10 home,Brakel,Nordrhein-Westfalen,51.7168889,9.1841762,eBay
"Asus Zenbook Flip Intel Core i5-7200U 512GB SSD 8GB RAM 13,3 Zoll FHD LED Touch",Schieder-Schwalenberg,Nordrhein-Westfalen,51.8973691,9.1782795,eBay
Dell XPS 17 9700 - 17'' Notebook - Core i7 5 GHz 43 cm (BND_YHC1H_6GQ-01090),Wedemark,Niedersachsen,52.5622873,9.7037034,eBay
"Sony Vaio SVS13 S13P 13,3 i7 2x 3,60GHZ 256GB SSD 12GB RAM Blu-Ray Carbon WIN 10",Hildesheim,Niedersachsen,52.1521636,9.9513046,eBay
Notebook Laptop Lenovo ThinkPad X240 i3 8GB RAM 128GB WEBCAM Win 10 refurbished,Hannover,Niedersachsen,52.3744779,9.7385532,eBay
"HP 17-by3142ng/17,3'' FHD IPS/Intel i5-1035G1 8GB RAM, 512GB SSD, DVD, Windows",Wedemark,Niedersachsen,52.5622873,9.7037034,eBay
"ACER ASPIRE 7741G / MS2309 17,3"" intel core i3  ‚ÄúTop Zustand‚Äù",Lippstadt,Nordrhein-Westfalen,51.6747074,8.347194,eBay
Zebra ET51 10.1'' WIN10 INTEL E3940 - Tablet - Atom (ET51AT-W12E),Wedemark,Niedersachsen,52.5622873,9.7037034,eBay
Panasonic ToughBook CF-H2 Core i5-3437U 1.90GHz 8GB RAM 128GB SSD WIN 10 Pro,Delmenhorst,Niedersachsen,53.0528092,8.6294626,eBay
"Lenovo U31-70 wei√ü, 13"" FHD LED, 8 GB RAM, I5-5200, 256GB SSD, Win 10, OVP, Top!",B√ºren,Lombardia,45.9473303,10.2064036,eBay
"wie NEU Dell Vostro 5568 15,6"" i7-7500U 256GB SSD + 1TB HDD / 16GB RAM",Hannover,Niedersachsen,52.3744779,9.7385532,eBay
Notebook HP ProBook 6550b Windows 10 mit 128 GB SSD,Delligsen,Niedersachsen,51.9438618,9.7974639,eBay
"Laptop DELL Latitude e5550 12GB RAM 500GB SSD i5 2,5GHz",Detmold,Nordrhein-Westfalen,51.936284,8.8791526,eBay
"TERRA MOBILE 1716 - Intel Core i3 Prozessoren der 10. Generation - 2,1 GHz",Wedemark,Niedersachsen,52.5622873,9.7037034,eBay
Lenovo Thinkpad E535 Notebook 4GB RAM CPU AMD A8-4500 HDD 500GB Radeon1GB  7640G,Lengerich,Nordrhein-Westfalen,52.1887731,7.8508691,eBay
Msi Laptop 15 Zoll Mit windows 10 Pro 4gb L√ºfter neu u. Richtige Grafikkarte ,Bremen,Bremen,53.0758196,8.8071646,eBay
"Asus Eee Pc N10E 2GB RAM, 160GB HDD, Windows 10 Pro",Wunstorf,Niedersachsen,52.4257979,9.4294425,eBay
"Notebook Terra Mobile1529 Wortmann i5 2*2,6GHz 8GB 256SSD Win10P",Hannover,Niedersachsen,52.3744779,9.7385532,eBay
"Dell Latitude E6520 15"" HD+ Notebook Intel Core i5 2,4GHZ 256GB SSD 8GB WWAN",Hannover,Niedersachsen,52.3744779,9.7385532,eBay
"Lenovo ThinkPad T420s / 14"" (35,6cm) i5-2520M 2x 2,50GHz 4GB 160GB Laptop *1416*",Andervenne,Niedersachsen,52.5103219,7.570672,eBay
"UltraBook Lenovo ThinkPad T420s i5 WEBCAM 14,1 LED HD+ 1600x900 Laptop gebraucht",Hannover,Niedersachsen,52.3744779,9.7385532,eBay
Acer Predator Helios 300 PH317-51-787X  i7-7700  256GBSSD  1TBHDD  H√ÑNDLER 12770,G√ºtersloh,Nordrhein-Westfalen,51.9063997,8.3782078,eBay
"HP Stream 13"" Intel Celeron N2840 2 x 2.16GHz blau 32GB SSD 2GB RAM Win10 Laptop",Schieder-Schwalenberg,Nordrhein-Westfalen,51.8973691,9.1782795,eBay
ASUS Zenbook UX303L,M√ºnster,Nordrhein-Westfalen,51.9625101,7.6251879,eBay
"Microsoft Surface Laptop 3 13,5 (34,29cm) 8GB 256GB SSD WIN10 Home Platin QWERTY",Bothel,England,54.740692,-3.2729878,eBay
"HP Pavilion G7 39 - 15,6'' Notebook - 2,1 GHz 39,6 cm (2D200EA#ABD)",Wedemark,Niedersachsen,52.5622873,9.7037034,eBay
"MacBook Pro 15 2015 Retina 3,40GHz,16GB Speicher 1000GB SSD",Horn-Bad Meinberg,Nordrhein-Westfalen,51.8801277,8.9731695,eBay
Gigabyte AERO 17 XB-7DE1130SH - Intel Core i7 Prozessoren der 10. Generation,Wedemark,Niedersachsen,52.5622873,9.7037034,eBay
2 TB SSD Neu Garantie *viel Zubeh√∂r* Apple MacBook Pro 17 Zoll QUAD Core i7 OVP,Herford,Nordrhein-Westfalen,52.1152245,8.6711118,eBay
"SAMSUNG Galaxy Book Ion 15,6"" FHD i7-10510U 16GB / 512GB SSD / MX250 2GB - Win10",Hildesheim,Niedersachsen,52.1521636,9.9513046,eBay
"Dell XPS 13 9300 - 13,4'' Notebook - Core i7 3,9 GHz 34 cm",Wedemark,Niedersachsen,52.5622873,9.7037034,eBay
"Dell XPS 15 9500 - 15,6'' Notebook - Core i7 39,62 cm (BND_XXFY5_6GQ-01090)",Wedemark,Niedersachsen,52.5622873,9.7037034,eBay
> ASUS ZenBook Flip 14 UX463FL-AI025R [Keyb.QWERTZ DE|i7-10510U|16GB|1TB],Wedemark,Niedersachsen,52.5622873,9.7037034,eBay
Lenovo ThinkPad L15 Gen.1 (20U70002GE) ,Minden,Nordrhein-Westfalen,52.2881045,8.9168852,eBay
HP ProBook 440 G3 - i5-6200U - 4GB - 256GB - Windows 10 - Guter Zustand - 180013,Bielefeld,Nordrhein-Westfalen,52.0191005,8.531007,eBay
"Apple MacBook Pro A1278 33,8 cm (13,3 Zoll) Laptop - MD313D/A (Oktober, 2011)",Achim,Niedersachsen,53.0068811,9.0425504,eBay
Samsung Serie 7 Slate PC 700T1A - Windows 10 - Inkl. Dockingstation & OVP,Bielefeld,Nordrhein-Westfalen,52.0191005,8.531007,eBay
"Lenovo ThinkPad T440p | 14"" | Intel Core i7-Prozessor | SSD | 8GB Arbeitsspeiche",Lehrte,Niedersachsen,52.3749334,9.9748557,eBay
"Acer Aspire E17 ES1-711 17,3"" Intel N2940 Quadcore 4GB DDR3 Ram 320GB HDD Win10",Hannover,Niedersachsen,52.3744779,9.7385532,eBay
"Apple MacBook Pro Retina 15"" Ende 2013 Core i7 2,3 GHz 16GB RAM 512GB SSD Silber",M√ºnster,Nordrhein-Westfalen,51.9625101,7.6251879,eBay
"HP ZBook 17 G3 i7-6700HQ 4x 2,60GHz 512GB M.2 SSD 32GB Quadro M3000M TB FP WIN10",Bad Salzuflen,Nordrhein-Westfalen,52.0857452,8.7534422,eBay
"Asus Multimedia-Notebook (ZenBook14 UX434) 14 Zoll Full HD Laptop, blau",Langenhagen,Niedersachsen,52.443118,9.738994,eBay
Notebook TOSHIBA PA3362U-1MPC mit 160 GB HD ohne HDD Caddy,Hude,Schleswig-Holstein,54.3880564,9.2148137,eBay
"HP 250 G7 15S86ES/15,6'' Full HD/Intel i5-1035G1 8GB RAM, 512GB SSD, DVD,",Wedemark,Niedersachsen,52.5622873,9.7037034,eBay
Acer Aspire 3 A315-56-38QL - Intel Core i3 Prozessoren der 10. Generation,Wedemark,Niedersachsen,52.5622873,9.7037034,eBay
"Apple MacBook Air 13.3"" (128GB SSD, Intel Core i5 5. Gen 1.8GHz, 8GB) Silber...",Gronau,Nordrhein-Westfalen,52.2118499,7.0236342,eBay
"sehr sch√∂nes Laptop Samsung R540 Intel i3 120GB SSD 15,6 Zoll Word",Hannover,Niedersachsen,52.3744779,9.7385532,eBay
Terra Mobile 1715 Intel Core i5-7200U; 16GB DDR4 RAM; 480GB SSD; Win 10 Pro,H√ºllhorst,Nordrhein-Westfalen,52.2739463,8.6704447,eBay
"Apple MacBook Air (MWTL2D/A) Gold Notebook 13,3 Zoll 256 GB SSD",Langenhagen,Niedersachsen,52.443118,9.738994,eBay
"Lenovo ThinkPad X260, i5-6300U, 4 GB RAM, 256 GB SSD, Windows 10 Pro",M√ºnster,Nordrhein-Westfalen,51.9625101,7.6251879,eBay
HP EliteBook 840r G4 FHD Touch Core i5-7300U 2.60GHz 16GB RAM 256GB SSD W10P,M√ºnster,Nordrhein-Westfalen,51.9625101,7.6251879,eBay
"Sony Vaio VPCF1 16,4 Full HD i7-720QM 4x 1,60GHZ 500GB HDD 6GB RAM Blu-Ray WIN10",Hildesheim,Niedersachsen,52.1521636,9.9513046,eBay
"Notebook / Laptop HP Compaq NC8000, Pentium M 1,6 GHz, Mobility Radeon 9600 Pro",Bad W√ºnnenberg,Nordrhein-Westfalen,51.5169114,8.6986809,eBay
"HP 250 G7 - Intel Core i7 Prozessoren der 10. Generation - 1,3 GHz",Wedemark,Niedersachsen,52.5622873,9.7037034,eBay
Lenovo ThinkPad T480 14Zoll HD Intel Core i5-8350U 16GB Ram 256GB SSD Windows 10,M√ºnster,Nordrhein-Westfalen,51.9625101,7.6251879,eBay
"FUJITSU Esprimo V6555, 15,4"", 320 GB, 4 GB, Win 10 Pro, Core2Duo, betriebsbereit",Hildesheim,Niedersachsen,52.1521636,9.9513046,eBay
"Apple MacBook Pro 13,3-Zoll Laptop - MGX82D/A (Juli, 2014)",B√ºnde,Nordrhein-Westfalen,52.2003644,8.5827558,eBay
HP Pavilion DV7 17 2130eg  Intel Core2 Win10 SSD 120 GB + HDD Festplatte 500GB ,Bad Gandersheim,Niedersachsen,51.8704732,10.0297839,eBay
"ASUS Zenbook Deluxe 3 Core i5 2,50GHz 256GB SSD 8GB RAM Intel FHD Ultrabook TOP",Schieder-Schwalenberg,Nordrhein-Westfalen,51.8973691,9.1782795,eBay
Lenovo ThinkBook 13s - Intel Core i7 Prozessoren der 10. Generation,Wedemark,Niedersachsen,52.5622873,9.7037034,eBay
"Apple MacBook Air A1466 33,8 cm (13,3 Zoll) Laptop OS BIC SUR",Laatzen,Niedersachsen,52.3077423,9.8132829,eBay
"Lenovo ThinkPad L490 - 14'' Notebook - Core i5 Mobile 1,6 GHz 35,6 cm",Wedemark,Niedersachsen,52.5622873,9.7037034,eBay
"HP EliteBook 840 G1 / 14""(35,6cm) i5-4300U 2x 1,90GHz 8GB 500GB Laptop *NB-1074*",Andervenne,Niedersachsen,52.5103219,7.570672,eBay
"Fujitsu LifeBook AH530 15,6""  i5-CPU  2,67GHz  SSD  4/8GB RAM - NP 830‚Ç¨ Garantie",Enger,Nordrhein-Westfalen,52.1394015,8.5588818,eBay
"Acer Aspire BND_NX.HN3EG.007_QQ2-00928 - 15,6'' Notebook - 39 cm",Wedemark,Niedersachsen,52.5622873,9.7037034,eBay
"HP ProBook BND_3C087ES_QQ2-00928 - 15,6'' Notebook - Core i5 39 cm",Wedemark,Niedersachsen,52.5622873,9.7037034,eBay
"HP 470 G7 9HP79EA/17,3'' FHD IPS, Intel i7-10510U 8GB RAM, 256GB SSD+ 1TB,",Wedemark,Niedersachsen,52.5622873,9.7037034,eBay
"ASUS VivoBook S712DA-BX383T/17,3'' HD+/Ryzen 5 3500U 8GB RAM/512GB SSD/Windows",Wedemark,Niedersachsen,52.5622873,9.7037034,eBay
"Dell XPS 13 9300 - 13,4'' Notebook - Core i7 34 cm (BND_VD5XJ_QQ2-00928)",Wedemark,Niedersachsen,52.5622873,9.7037034,eBay
"HP 17-ca1147ng/17,3'' FHD IPS, Ryzen 5 3500U 8GB RAM, 512GB SSD, DVD, Windows 10",Wedemark,Niedersachsen,52.5622873,9.7037034,eBay
Dell XPS 17 9700 - 17'' Notebook - Core i7 5 GHz 43 cm (BND_YHC1H_QQ2-00928),Wedemark,Niedersachsen,52.5622873,9.7037034,eBay
"Dell XPS 15 9500 - 15,6'' Notebook - Core i5 39,62 cm (BND_6981M_6GQ-01090)",Wedemark,Niedersachsen,52.5622873,9.7037034,eBay
"HP EliteBook 840r G4 14"" FHD Touch Intel Core i5-7300U 2.60GHz 16GB RAM 256GB SS",M√ºnster,Nordrhein-Westfalen,51.9625101,7.6251879,eBay
Apple MacBook Air 11‚Äú 2014 Intel i5 128 GB SSD mit OVP guter Zustand,Hildesheim,Niedersachsen,52.1521636,9.9513046,eBay
Lenovo ThinkBook 13s - Intel Core i7 Prozessoren der 10. Generation,Wedemark,Niedersachsen,52.5622873,9.7037034,eBay
"Apple MacBook Air A1466 33,8 cm (13,3 Zoll) Laptop OS BIC SUR",Laatzen,Niedersachsen,52.3077423,9.8132829,eBay
"Lenovo ThinkPad L490 - 14'' Notebook - Core i5 Mobile 1,6 GHz 35,6 cm",Wedemark,Niedersachsen,52.5622873,9.7037034,eBay
"HP EliteBook 840 G1 / 14""(35,6cm) i5-4300U 2x 1,90GHz 8GB 500GB Laptop *NB-1074*",Andervenne,Niedersachsen,52.5103219,7.570672,eBay
"Fujitsu LifeBook AH530 15,6""  i5-CPU  2,67GHz  SSD  4/8GB RAM - NP 830‚Ç¨ Garantie",Enger,Nordrhein-Westfalen,52.1394015,8.5588818,eBay
Apple MacBook Air Speicher SSD 128GB,Hannover,Niedersachsen,52.3744779,9.7385532,eBay
"Sony Vaio VPCF2 16,4 1080p 120Hz 3D i7 4x 2,20GHZ 500GB SSD 16GB 100% Adobe RGB",Hildesheim,Niedersachsen,52.1521636,9.9513046,eBay
1x Laptop Notebook Rocky RK9 mit Zubeh√∂r Bastler ex BW Bundeswehr (LAP16),Emsdetten,Nordrhein-Westfalen,52.174687,7.5301756,eBay
"HP 14"" Intel Core i5 10. Gen Turbo 3,60GHz FHD 256GB SSD 8GB RAM Winows 10 Home",Schieder-Schwalenberg,Nordrhein-Westfalen,51.8973691,9.1782795,eBay
Lenovo ThinkPad x1 Carbon 7th gen 512GB SSD 16GB RAM *neuwertig mit Garantie*,Langlingen,Niedersachsen,52.5560338,10.2830321,eBay
"Microsoft Surface Pro LTE 4G+ i5 Touch 12.3"" 256GB / 8GB RAM Model: 1807 NEU OVP",Bremen,Bremen,53.0758196,8.8071646,eBay
"Apple CZ0Y0-01010 - 16'' Notebook - Core i9 2,3 GHz 40,6 cm",Wedemark,Niedersachsen,52.5622873,9.7037034,eBay
"hp nx6125 Business-Notebook 15""",Hannover,Niedersachsen,52.3744779,9.7385532,eBay
"Dell Latitude 5500 - i7-8665U - 512GB SSD - 16GB RAM - 15,6''FHD - NEU",G√ºtersloh,Nordrhein-Westfalen,51.9063997,8.3782078,eBay
Lenovo ThinkPad L460 14 Zoll Pentium 4405U 6.Gen 2x 2.10GHz 120GB SSD 8GB HD,Extertal,Nordrhein-Westfalen,52.0906649,9.0947816,eBay
"Lenovo IdeaPad Y50-70 15,6 Zoll (240GB SSD, Intel Core i7 4. Gen, 2,5GHz, 8GB)",Bersenbr√ºck,Niedersachsen,52.5553293,7.9471842,eBay
"SATELLITE C870D-119 500GB 8GB deutsch 17,6""",Bremen,Bremen,53.0758196,8.8071646,eBay
Laptop notebook Targa Visionary mit Netzteil Und Software,Lahstedt,Niedersachsen,52.2480168,10.246654964599225,eBay
"MacBook Air 11 (Ende 2010), 64GB Fla, Intel Core 2 Duo 1.4GHz, 4GB Ra",Paderborn,Nordrhein-Westfalen,51.7177044,8.752653,eBay
"Lenovo ThinkBook 15-IML Mineral Grey, Inteli5-10210U # 16GB RAM, # 512GB SSD",Steinhagen,Mecklenburg-Vorpommern,53.8436425,11.929235,eBay
"Lenovo IdeaPad 5 81YQ004KGE/15,6'' FHD IPS, Ryzen 5 4500U 16GB RAM, 512GB SSD,",Wedemark,Niedersachsen,52.5622873,9.7037034,eBay
"ASUS Zenbook Flip UX563FD-A1025R, i7 10510U, 16GB RAM, 1TB SSD, GTX1050 Garantie",Wedemark,Niedersachsen,52.5622873,9.7037034,eBay
"Dell Latitude E7440 14"" (35,6cm) i7-4600U 2x 2,10GHz 16GB 256GB Laptop *NB-939*",Andervenne,Niedersachsen,52.5103219,7.570672,eBay
Dell XPS 13 9310 Flachbildschirm (TFT/LCD) (F34J5),Wedemark,Niedersachsen,52.5622873,9.7037034,eBay
Acer Chromebook Spin 311/11.6'' IPS Touch/ARM Cortex A73/A53 11.6'' Touch ARM,Wedemark,Niedersachsen,52.5622873,9.7037034,eBay
"Lenovo ThinkPad T410 / 14,1"" (35,8cm) i5-M520 2x 2,40GHz 4GB 250GB Laptop *1406*",Andervenne,Niedersachsen,52.5103219,7.570672,eBay
"Apple MacBook pro (mid 2012) 13,3"" 500 GB SSD 16 GB RAM perfekt f√ºr Home-Office",G√ºtersloh,Nordrhein-Westfalen,51.9063997,8.3782078,eBay
"Samsung NP-R509 Laptop Notebook, Windows Vista, 4 GB RAM, Intel 2 GHz CPU",Sehnde,Niedersachsen,52.3144002,9.9647193,eBay
"Fujitsu Notebook - E751, Intel i5 2,5 GHz, 8 GB RAM, 320 GB HDD, Multi DVD",G√ºtersloh,Nordrhein-Westfalen,51.9063997,8.3782078,eBay
"Apple MacBook Pro 13"" (33,78cm) 2 GHz i5 16GB RAM 512GB SSD Space Grau AZERTY FR",Bothel,England,54.740692,-3.2729878,eBay
"sehr sch√∂ner Dell VOSTRO 3559 15,6"" i5-6200U 8GB RAM 1TB HDD Win 10",Celle,Niedersachsen,52.624056,10.081052,eBay
"HP Compaq 610 15,4 Zoll CPU Intel Dual Core 2 x 2,00 GHZ 4GB",Hude,Schleswig-Holstein,54.3880564,9.2148137,eBay
"MacBook Pro 15/Retina/6Kern i7-4,3Ghz/512GB SSD/32GB RAM/AMD Pro mit 4GB/Neuware",Horn-Bad Meinberg,Nordrhein-Westfalen,51.8801277,8.9731695,eBay
"Lenovo ThinkPad R500, Centrino 2,2 Ghz15,4 Zoll  8 GB RAM und 500 GB Festplatte",Eystrup,Niedersachsen,52.7814673,9.2242199,eBay
"HP G72 17,3 Zoll (500 GB, Intel Pentium, 2GHz, 8GB RAM) Notebook, Akku defekt",G√ºtersloh,Nordrhein-Westfalen,51.9063997,8.3782078,eBay
Asus Notebook 8 GB RAM -i5-5200U-1TBHDD (4 Cpu 2.2 Ghz) Intel Hd Grapichs 5500 ,H√∂xter,Nordrhein-Westfalen,51.7747369,9.3816877,eBay
Acer aspire es1-711,Rheine,Nordrhein-Westfalen,52.2797707,7.4373615,eBay
"ThinkPad T480s i5-8250U, LTE, Touch, 16Gb RAM, 512gb SSD, Garantie, Tasche, OVP",Burgwedel,Niedersachsen,52.5,9.86667,eBay
Lenovo ThinkPad R61,Beckum,Nordrhein-Westfalen,51.7555148,8.041135,eBay
"ASUS ROG Strix Scar II GL504GV-ES047T 15,6"" FHD / i7-8750H / 16GB / 512GB SSD ",Weyhe,Niedersachsen,52.9821257,8.8495643,eBay
"Sony Vaio VPCZ1 13,1 Zoll i5 2x 2,67GHZ 320GB HDD 8GB RAM Carbon Ultrabook",Hildesheim,Niedersachsen,52.1521636,9.9513046,eBay
"Sony-Vaio Notebook - 16,5 Zoll selten genutzt, voll funktionst√ºchtig ",Bremen,Bremen,53.0758196,8.8071646,eBay
"HP Pavilion G7 15 - 15,6'' Notebook - Core i7 2,6 GHz 39,6 cm (1J3X8EA#ABD)",Wedemark,Niedersachsen,52.5622873,9.7037034,eBay
CrowPi2 All in one STEM Learning Platform for Raspberry Pi 4,Paderborn,Nordrhein-Westfalen,51.7177044,8.752653,eBay
> Dell G3 15 3500 Notebook [Keyboard:GERMAN|i5-10300H|8GB|512GB|GTX 1650Ti],Wedemark,Niedersachsen,52.5622873,9.7037034,eBay
"Dell Inspiron 14 - 14'' Notebook - Core i7 1,3 GHz 35,6 cm (5G0T5)",Wedemark,Niedersachsen,52.5622873,9.7037034,eBay
"HP ELITEBOOK 850 G3 i5 6300U-3,2GHz 256SSD 16GB 15,6""FHD 1920X1080 TOCHSCREEN",Hannover,Niedersachsen,52.3744779,9.7385532,eBay
"SONY VAIO Notebook , Model  PCG-4R1M.",Hatten,Grand Est,48.9012785,7.9757435,eBay
"Lenovo ThinkPad L430 14 Zoll Intel Core i3 2.Gen, 2,40GHz 500GB SSHD 4GB RAM",Extertal,Nordrhein-Westfalen,52.0906649,9.0947816,eBay
Fujitsu Lifebook S752 Intel Core i5-3320M 2.6GHz 14 Zoll 4GB RAM 128GB SSD DVD ,Bramsche,Niedersachsen,52.4076948,7.979647,eBay
"Dell Latitude E7250 i7-5600U 2x2,60GHz 8GB 256GB M.2 SSD Intel HD TB CAM W10 B1",Bad Salzuflen,Nordrhein-Westfalen,52.0857452,8.7534422,eBay
MSI GE73VR 7RE Raider I7 7700HQ 16GB DDR4 gtx 1070 nvidia highend gaming Laptop,G√ºtersloh,Nordrhein-Westfalen,51.9063997,8.3782078,eBay
"Novemberangebot ASUS Chromebook C433TA-AJ0057 14,0"" FHD 4415Y/8GB/64GB Linux",L√ºgde,Nordrhein-Westfalen,51.9088111,9.2715714,eBay
"Notebook Lenovo ThinkPad L512,intel Core i3 CPU,4GB RAM",Bielefeld,Nordrhein-Westfalen,52.0191005,8.531007,eBay
"¬∞ ASUS ROG Strix G731GV-EV041T Notebook [Kbd.GERMAN|17,3""|Intel i7-9750H|16GB]",Wedemark,Niedersachsen,52.5622873,9.7037034,eBay
"CSL Revolve 14,1"" Notebook Laptop Netbook 512 GB SSD Windows 10 Home",Hannover,Niedersachsen,52.3744779,9.7385532,eBay
Fujitsu Stylistic R727 Tablet - 8GB Ram - 256GB M2 SSD,Salzhemmendorf,Niedersachsen,52.0681341,9.5878533,eBay
ASUS F509JA-EJ796 i5 8 I rd noOS| 90NB0QE4-M16690 - Core i5 - 8 GB,Wedemark,Niedersachsen,52.5622873,9.7037034,eBay
Acer ConceptD CC715-71-73AW - Intel Core i7 Prozessoren der 10. Generation,Wedemark,Niedersachsen,52.5622873,9.7037034,eBay
"Fujitsu Lifebook S762 i5-3230M 2x 2,60GHz 8GB 250GB SSD Intel HD 4000 FP W10",Bad Salzuflen,Nordrhein-Westfalen,52.0857452,8.7534422,eBay
"Lenovo ThinkPad P15s - 15'' Notebook - Core i7 1,8 GHz 39,6 cm (20T4000JGE)",Wedemark,Niedersachsen,52.5622873,9.7037034,eBay
"Apple MacBook Pro retina 13"" Ô£ø i5 - 8 GB RAM - 256 GB SSD Ô£ø 2014 ***TOP!***",Hannover,Niedersachsen,52.3744779,9.7385532,eBay
"HP EliteBook 850 G6 - Intel Core i7 - 1,8 GHz (8MJ38EA#ABD)",Wedemark,Niedersachsen,52.5622873,9.7037034,eBay
"Asus F751L 17,3"" i5 5200U, 2x 2.20GHz 480GB SSD 12GB DDR3 - H√ÑNDLER YAPIDO  ",Bremen,Bremen,53.0758196,8.8071646,eBay
"Apple MacBook pro 15"" Retina Display 2,0 GHz (Ende 2013)",Bielefeld,Nordrhein-Westfalen,52.0191005,8.531007,eBay
"> Fujitsu LIFEBOOK A3510 Notebook (Keyboard GERMAN|15,6''|i5-1035G1|8GB|256GB)",Wedemark,Niedersachsen,52.5622873,9.7037034,eBay
"Dell Latitude E5270 i7-6600U 2x2,60GHz 8GB 256GB M.2 SSD  HD Graphics 520 CAM B1",Bad Salzuflen,Nordrhein-Westfalen,52.0857452,8.7534422,eBay
"Acer Aspire 5 A515-56G-51YF - Intel Core i5-11xxx - 4,2 GHz (NX.A1MEV.007)",Wedemark,Niedersachsen,52.5622873,9.7037034,eBay
"HP Pavilion - 15,6'' Notebook - Core i5 1 GHz 39,6 cm (1X2R7EA)",Wedemark,Niedersachsen,52.5622873,9.7037034,eBay
"Acer Chromebook 314 CB314-1HT-C9VY 14""/N4120/4/64/ChromeOS",L√ºbbecke,Nordrhein-Westfalen,52.3027209,8.6183054,eBay
"Sony Vaio VGN-P11Z 8 Zoll 1,33GHZ 60GB 2GB Windows Vista Subnotebook Schwarz RAR",Hildesheim,Niedersachsen,52.1521636,9.9513046,eBay
"Macbook Pro 3,1 15 Zoll Core2Duo T7500@2.2GHz, 4GB Ram, 320GB HDD 1440x900 Linux",M√ºnster,Nordrhein-Westfalen,51.9625101,7.6251879,eBay
Lenovo Yoga Slim 7 82A200A5GE - 14'' FHD IPS AMD Ryzen 7 4800U 16GB RAM 512GB,Wedemark,Niedersachsen,52.5622873,9.7037034,eBay
"Fujitsu Lifebook S782 Core-i5-3210@2,5GHz, 4GB RAM, 250GB SSD, Win10Pro, UMTS",Delmenhorst,Niedersachsen,53.0528092,8.6294626,eBay
Asus F543UA-GQ1817T Gold 4417U Dual-Core 2x 2.30 GHz 1TB 4GB DDR4 - H√§ndler,Bremen,Bremen,53.0758196,8.8071646,eBay
"Lenovo ThinkPad Yoga 12 Intel i5-5300U 2x 2,30GHz 256GB SSD 4GB HD 5500 CAM W10 ",Bad Salzuflen,Nordrhein-Westfalen,52.0857452,8.7534422,eBay
Lenovo IdeaPad Flex 5 - Intel Core i7 Prozessoren der 10. Generation,Wedemark,Niedersachsen,52.5622873,9.7037034,eBay
"Sony Vaio SVE1512W1EB 15,5 i5-3210M 2x 2,50GHZ 1TB HDD 8GB Blu-Ray Windows 10",Hildesheim,Niedersachsen,52.1521636,9.9513046,eBay
"Dell XPS 17 9700 - 17'' Notebook - Core i5 4,5 GHz 43 cm (BND_81XHT_6GQ-01090)",Wedemark,Niedersachsen,52.5622873,9.7037034,eBay
"ULTRAD√úNNES HP ELITEBOOK 820 G3 i5-3,2GHz 500GB 8GB RAM ORIGENAL DE-TASTATUR",Hannover,Niedersachsen,52.3744779,9.7385532,eBay
Acer NotebookAspire A515-51mit Intel I3 -6006UCPU 4GB RAM Nvidia Gforce 840MX,Eystrup,Niedersachsen,52.7814673,9.2242199,eBay
"Asus X51L Notebook intel core Cpu T7700 2,4 Ghz , Festplatte 256 Gb SSD 15 Zoll",Nordstemmen,Niedersachsen,52.1604925,9.7838751,eBay
"Apple Macbook 2015 Retina 12""  | 1.1 GHz Intel Core M | 8 GB | mit Rechnung ",Hille,Nordrhein-Westfalen,52.3360492,8.7452571,eBay
"ASUS TUF Gaming FX504GM-E4326T / 15,6"" FHD / i7-8750H / 8GB / 1TB HDD 256GB SSD ",Weyhe,Niedersachsen,52.9821257,8.8495643,eBay
"Dell Latitude E7240 / 12,5"" / i5-4210U 2x1,70GHz / 4GB / 256GB / WIN10 *NB-467*",Andervenne,Niedersachsen,52.5103219,7.570672,eBay
Fujitsu Stylistic R727 Tablet - 8GB Ram - 256GB M2 SSD,Salzhemmendorf,Niedersachsen,52.0681341,9.5878533,eBay
"Siemens Simatic Field PG M2 2,2 GHz Core 2 Duo, Typ: 6ES7713-0AA00-0AF4",Vechta,Niedersachsen,52.7310691,8.2873162,eBay
Lenovo ThinkPad P52s Intel i7-8550U 16GB RAM 512GB SSD NVIDIA Quadro P500 W10P,M√ºnster,Nordrhein-Westfalen,51.9625101,7.6251879,eBay
"Fujitsu LifeBook AH530 15,6""  i5-CPU  2,67GHz  SSD  4/8GB RAM - NP 830‚Ç¨ Garantie",Enger,Nordrhein-Westfalen,52.1394015,8.5588818,eBay
"Dell Precision 3551 - 15,6'' Notebook - Core i7 2,7 GHz 39,6 cm (1JXCP)",Wedemark,Niedersachsen,52.5622873,9.7037034,eBay
"HP ProBook BND_6HM70ES_QQ2-00928 - 15,6'' Notebook - Core i7 Mobile 39 cm",Wedemark,Niedersachsen,52.5622873,9.7037034,eBay
"Huawei MateBook D 14 WAQ9AR 35,56cm (14,0'') IPS, Ryzen 5 3500U 8GB RAM, 256GB",Wedemark,Niedersachsen,52.5622873,9.7037034,eBay
HP Pavilion Gaming 17-cd1155ng 17.3'' FHD IPS 144Hz Intel i5-10300H 16GB RAM,Wedemark,Niedersachsen,52.5622873,9.7037034,eBay
"HP 255 G7 3P315ES 15,6'' Full HD, Ryzen 5 3500U, 8GB RAM, 512GB SSD, DVD,",Wedemark,Niedersachsen,52.5622873,9.7037034,eBay
"HP 17-ca1147ng/17,3'' FHD IPS, Ryzen 5 3500U 8GB RAM, 512GB SSD, DVD, Windows 10",Wedemark,Niedersachsen,52.5622873,9.7037034,eBay
Dell XPS 13 9310 Flachbildschirm (TFT/LCD) (TV332),Wedemark,Niedersachsen,52.5622873,9.7037034,eBay
"HP 250 G7 15S86ES/15,6'' Full HD, Intel i5-1035G1 8GB RAM, 512GB SSD, DVD,",Wedemark,Niedersachsen,52.5622873,9.7037034,eBay
"MacBook Air/ 2020/ QuadCore i7-3,80 GHz Magic Mouse 2 / NEUWARE",Horn-Bad Meinberg,Nordrhein-Westfalen,51.8801277,8.9731695,eBay
Acer Swift 5 SF514-55T-78E4 14'' Full HD IPS Touch i7-1165G7 16 GB RAM 512GB SSD,Wedemark,Niedersachsen,52.5622873,9.7037034,eBay
ASUS ExpertBook P1 P1510CJA-EJ419R 15.6'' i3-1005G1/8GB/256GB W10P - Notebook,Wedemark,Niedersachsen,52.5622873,9.7037034,eBay
"Siemens Simatic Field PG M2 2,2 GHz Core 2 Duo, Typ: 6ES7713-0AA00-0AF4",Vechta,Niedersachsen,52.7310691,8.2873162,eBay
Lenovo ThinkPad P52s Intel i7-8550U 16GB RAM 512GB SSD NVIDIA Quadro P500 W10P,M√ºnster,Nordrhein-Westfalen,51.9625101,7.6251879,eBay
"Dell Precision 3551 - 15,6'' Notebook - Core i7 2,7 GHz 39,6 cm (1JXCP)",Wedemark,Niedersachsen,52.5622873,9.7037034,eBay
"Acer Swift 1 SF114-33-P8Z8 - Intel Pentium Silver - 1,1 GHz (NX.HYREG.002)",Wedemark,Niedersachsen,52.5622873,9.7037034,eBay
"Lenovo Thinkpad Edge E530c 15"" HD Notebook Intel Core i3-2348M 2,3GHz 8GB 500GB",Peine,Niedersachsen,52.3217849,10.2349489,eBay
ASUS ZenBook Pro Duo UX581LV-H2014T (90NB0RQ1-M00550),Wedemark,Niedersachsen,52.5622873,9.7037034,eBay
"Dell Latitude E6320 Intel Core i5-2520M 2,50GHz 8GB RAM 1000GB HDD Win 10 Pro",M√ºnster,Nordrhein-Westfalen,51.9625101,7.6251879,eBay
ASUS ROG Strix G17 G712LW-EV071T 17.3'' FHD Intel i7-10750H 16GB RAM 1TB SSD,Wedemark,Niedersachsen,52.5622873,9.7037034,eBay
"HP EliteBook Tablet 2760p i5 2,50GHz 4Gb 320Gb Cam Touchscreen Win7Pro B/ohneSti",Hannover,Niedersachsen,52.3744779,9.7385532,eBay
"HP EliteBook x360 1020 G2 12,5"" FHD IPS Intel Core i5-7200U 8GB 512GB SSD Win10 ",M√ºnster,Nordrhein-Westfalen,51.9625101,7.6251879,eBay
"Lenovo ThinkPad T520 i5 2,5Ghz 4Gb 320Gb Win7Pro CAM 15,4 Zoll DISPLAY VZL",Hannover,Niedersachsen,52.3744779,9.7385532,eBay
"Medion E1226 MD98570 Intel Atom CPU 455 1,66GH  1GB RAM,240GB HDD  Netbook",Bielefeld,Nordrhein-Westfalen,52.0191005,8.531007,eBay
"WIE NEU Acer Aspire E17 E5-771 17,3"" Zoll 8GB 120GB SSD Windows 10 !!!!",Hannover,Niedersachsen,52.3744779,9.7385532,eBay
HP Laptop dv6 Notebook Intel i5 SSD Win10,Nienhagen,Mecklenburg-Vorpommern,54.1588085,11.954355490789473,eBay
"Fujitsu Lifebook S761 13,3"" Intel Core i5-2520M 2x2.5GHz 4GB 320GB HDD Win10Pro ",Bramsche,Niedersachsen,52.4076948,7.979647,eBay
"Lenovo Thinkpad X1 Carbon 14"" HD+ Intel Core i5-4210U 8GB 128GB SSD W10Pro WWAN",Peine,Niedersachsen,52.3217849,10.2349489,eBay
"Dell Latitude 7410 - 14'' Notebook - Core i5 1,7 GHz 35,6 cm (K7C9T)",Wedemark,Niedersachsen,52.5622873,9.7037034,eBay
"Dell Latitude 7410 - 14'' Notebook - Core i7 1,8 GHz 35,6 cm (NP75D)",Wedemark,Niedersachsen,52.5622873,9.7037034,eBay
"MSI GL73 8RE 17 3"" Intel Core i7-8750H GTX 1060 6GB",Barsinghausen,Niedersachsen,52.30223,9.4623741,eBay
"Lenovo ThinkPad T440 Intel i5 1,9Ghz 4Gb 320Gb Cam 1600x900 Win10Pro R40T  B",Hannover,Niedersachsen,52.3744779,9.7385532,eBay
"Fujitsu Lifebook A 555, 15 '', Intel Core i3, 8 GB RAM, 1 TB HDD, Top Zustand",Lilienthal,Niedersachsen,53.1414124,8.90677,eBay
"Fujitsu Lifebook E751 Intel Core i5-2520M 2x 2.5GHz 15,6"" 8GB RAM 500GB HDD DVD",Bramsche,Niedersachsen,52.4076948,7.979647,eBay
Dell Precision M4600 Core i7 Quad Core Full HD 16 GB 256GB SSD backlit in OVP,Bad Iburg,Niedersachsen,52.1576093,8.0454627,eBay
"HP ProBook 430 G6 - Intel Core i5 - 1,6 GHz (7DB95EA#ABD)",Wedemark,Niedersachsen,52.5622873,9.7037034,eBay
"Lenovo ThinkPad P14s - 14'' Notebook - Core i7 1,8 GHz 35,6 cm (20S40006GE)",Wedemark,Niedersachsen,52.5622873,9.7037034,eBay
"Apple MacBook Pro 13"" (33,78cm) i5 8GB RAM 256GB SSD Space Grau 2019 QWERTZ",Bothel,England,54.740692,-3.2729878,eBay
Lenovo ideapad 330s-15ikb,B√ºckeburg,Niedersachsen,52.2611037,9.0488959,eBay
"Apple MacBook Air  (13'' Zoll, Mitte 2012)  A1466 defekt",M√ºnster,Nordrhein-Westfalen,51.9625101,7.6251879,eBay
"Business  Laptop Dell Latitude 7480 / 14,0 ""Full HD Display / 256GB SSD  / 8GB D",Bremen,Bremen,53.0758196,8.8071646,eBay
> TERRA MOBILE 1515A Notebook (Keyboard GERMAN|4GB|240GB|Intel Pentium N5000),Wedemark,Niedersachsen,52.5622873,9.7037034,eBay
"Acer Aspire 3 (A315-23G-R57Y) Laptop silber, 8 GB RAM, W10, 1000 GB SSD, 15,6 ",Langenhagen,Niedersachsen,52.443118,9.738994,eBay
"Lenovo ThinkPad T430 Intel i5 2,6 Ghz 4Gb 320Gb 1600x900 Win10Pro A31/B",Hannover,Niedersachsen,52.3744779,9.7385532,eBay
"HP Elite x2 G4 - Intel Core i5 - 1,6 GHz (7KP54EA#ABD)",Wedemark,Niedersachsen,52.5622873,9.7037034,eBay
"Lenovo ThinkPad L430 14 Zoll Intel Core i3 3.Gen, 2,50GHz 120GB SSD 8GB RAM",Extertal,Nordrhein-Westfalen,52.0906649,9.0947816,eBay
"Dell XPS 13 9300 - 13,4'' Notebook - Core i7 34 cm (BND_VD5XJ_6GQ-01090)",Wedemark,Niedersachsen,52.5622873,9.7037034,eBay
HP Pavilion x360 14-cd0200ng mit Touch Display # Intel i3 CPU und 8GB RAM,Steinhagen,Mecklenburg-Vorpommern,53.8436425,11.929235,eBay
"MacBook Pro 15 2,3GHz i7 2,5 TB Fusiondrive 16GB Ram OVP",Borchen,Nordrhein-Westfalen,51.6610534,8.7231483,eBay
macbook air 2017,Bothel,England,54.740692,-3.2729878,eBay
"Apple MacBook Pro 13"" (33,78cm) 1,4GHz i5 8GB 256GB Space Grau 2020 AZERTY FR",Bothel,England,54.740692,-3.2729878,eBay
> Dell Inspiron 17 3793 Notebook [Keyboard GERMAN QWERTZ|i7-1065G7|16GB|512GB],Wedemark,Niedersachsen,52.5622873,9.7037034,eBay
"HP Pavilion Gaming - 15,6'' Notebook - Core i5 2,5 GHz 39,6 cm (187R5EA#ABD)",Wedemark,Niedersachsen,52.5622873,9.7037034,eBay
"Lenovo Ideapad 110-S* 11,6 zoll* Blau* 32 GB* 2GB *Akku 5 St *USB 3.0&2.0*HDMi*",Arholzen,Niedersachsen,51.8667,9.56667,eBay
1x Laptop Notebook Rocky RK9 mit Zubeh√∂r ex BW Bundeswehr (LAP13),Emsdetten,Nordrhein-Westfalen,52.174687,7.5301756,eBay
"Apple MacBook Pro 2019 13 Zoll  i7 2,8GHz 16GB 1TB SSD - Zustand sehr gut ",Bremen,Bremen,53.0758196,8.8071646,eBay
"Lenovo ThinkPad X230 12,5 Zoll Notebook i5 3. Gen 4GB RAM 128GB SSD Win 7 Pro *A",Hannover,Niedersachsen,52.3744779,9.7385532,eBay
"Ultrabook Dell Latitude E7450 Intel i5 5300U-2,3GHz 8GB-RAM 128SSD 14""FHD WIN10",Hannover,Niedersachsen,52.3744779,9.7385532,eBay
"Acer Swift 3 FHD Intel Core i5-10210U 1,60GHz 512GB NVMe SSD 8GB 14"" Fingerprint",Schieder-Schwalenberg,Nordrhein-Westfalen,51.8973691,9.1782795,eBay
Acer Swift 1 SF114-33-P5J8 N5030 4GB/256GB SSD 14'' FHD W10 - Notebook,Wedemark,Niedersachsen,52.5622873,9.7037034,eBay
"HP ProBook 6570b 15,6 LED HD i5 8 GB RAM 256 GB SSD Windows 10 WEBCAM LAPTOP",Hannover,Niedersachsen,52.3744779,9.7385532,eBay
Acer Swift 3 MX150 FHD IPS Ultrabook Core i7-8550U 8GB RAM 512GB SSD Intel UHD,Schieder-Schwalenberg,Nordrhein-Westfalen,51.8973691,9.1782795,eBay
"Apple MacBook Pro 16 Zoll (40,64cm) 2,3GHz Core i9 16GB 1TB silber QWERTY",Bothel,England,54.740692,-3.2729878,eBay
"Lenovo Laptop G700 Intel 2030M 2,5 GHz 4GB RAM 500GB",Borchen,Nordrhein-Westfalen,51.6610534,8.7231483,eBay
"ASUS ZenBook 3 Deluxe UX490UA / 14"" FHD / i5-7200U / 8GB / 512GB SSD / Win10 ",Weyhe,Niedersachsen,52.9821257,8.8495643,eBay
ULTRA KOMPAKTES TABLET PC PANASONIC TOUGHBOOK CF-U1 SSD TOUCHSCREEN UMTS,Hannover,Niedersachsen,52.3744779,9.7385532,eBay
"Asus Zenbook 3 Deluxe Core i5 7200U 2,50GHz 256GB SSD 8GB RAM Ultrabook Windows",Schieder-Schwalenberg,Nordrhein-Westfalen,51.8973691,9.1782795,eBay
Laptop Der Marke ONE 3gb ram Ohne Festplatte ohne Netzteil Voll Funktionsfahig,Bremen,Bremen,53.0758196,8.8071646,eBay
Toshiba Satellite L750 | i7 | 4GB 512GB | NVidia GeForce¬†| Wunsch Linux ,Paderborn,Nordrhein-Westfalen,51.7177044,8.752653,eBay
Lenovo ThinkPad P15v - Intel Core i7 Prozessoren der 10. Generation,Wedemark,Niedersachsen,52.5622873,9.7037034,eBay
Surface Pro (5th Gen) with LTE Advanced (256GB i5 8GB M1807) inkl. Tastatur,M√ºnster,Nordrhein-Westfalen,51.9625101,7.6251879,eBay
"Apple MacBook Pro Retina 15"" Ende 2013 Core i7 2,6 GHz 16GB RAM 512GB SSD",M√ºnster,Nordrhein-Westfalen,51.9625101,7.6251879,eBay
> Acer Swift 3 SF313-52-55UT Notebook [Kbd:QWERTZ DE|i5-1035G4|16GB|1TB|13.5''],Wedemark,Niedersachsen,52.5622873,9.7037034,eBay
"HP 15-da1610ng - Intel Core i5 - 1,6 GHz (6LG84EA#ABD)",Wedemark,Niedersachsen,52.5622873,9.7037034,eBay
"ASUS X540n-15,6‚Äú-500GB-4GB-WIN 10-KEYBOARD ITALIENISCHE SPRACHE-NEU",Ibbenb√ºren,Nordrhein-Westfalen,52.2774772,7.7151417,eBay
"Apple MacBook Pro 13 Zoll, 2020 (1 TB SSD, 16 GB RAM, i5) Multimedia Notebook",Langenhagen,Niedersachsen,52.443118,9.738994,eBay
"Apple MacBook Pro 17"", Core 2 Duo T9600 2.80GHz, 8GB RAM, 256GB SSD [Mid 2009]",Steinhagen,Mecklenburg-Vorpommern,53.8436425,11.929235,eBay
"Asus G2S, 17 Zoll,Intel Core 2 Duo 256GB Neu festplatte Windows 10 4GB Ramm¬†",Bielefeld,Nordrhein-Westfalen,52.0191005,8.531007,eBay
"Fast wie NEU Acer Aspire E17 E5-731 17,3"" Zoll 8GB RAM 500GB HDD Win 10",Hannover,Niedersachsen,52.3744779,9.7385532,eBay
DELL Latitude 5280 Full HD-Display Core i5-7200U 2.50GHz 8GB DDR4 128GB SSD W10P,M√ºnster,Nordrhein-Westfalen,51.9625101,7.6251879,eBay
"Apple MacBook Air A1466 33,8 cm (13,3 Zoll) Laptop - MJVE2D/A (M√§rz, 2015)",Herford,Nordrhein-Westfalen,52.1152245,8.6711118,eBay
"Lenovo ThinkPad P17 - 17,3'' Notebook - Core i7 2,6 GHz 43,9 cm (20SN002RGE)",Wedemark,Niedersachsen,52.5622873,9.7037034,eBay
Lenovo Legion 5 17IMH05H 81Y8 - Core i7 10750H 2.6 GHz - Win 10 Home 64-Bit,Wedemark,Niedersachsen,52.5622873,9.7037034,eBay
"Lenovo Ideapad 530S-14IKB 14"" FHD IPS  i7-8550U 8GB DDR4 512GB SSD Windows 10",Schieder-Schwalenberg,Nordrhein-Westfalen,51.8973691,9.1782795,eBay
"Apple MacBook Air 13"" (33,78cm) 1,1GHz Quadcore i5 8GB RAM 512GB SSD Gold QWERTY",Bothel,England,54.740692,-3.2729878,eBay
"Acer Nitro 5 AN515-54-70Y9 - Intel Core i7 der 9. Generation - 2,6 GHz",Wedemark,Niedersachsen,52.5622873,9.7037034,eBay
> Apple iPad PRO (2017) 64GB Wi-Fi + Cellular 4G LTE Space Gray (MQEY2FD/A),Wedemark,Niedersachsen,52.5622873,9.7037034,eBay
Trekstor Primebook P14 Celeron N3350 1.10 GHz 60GB SSD - H√ÑNDLER YAPIDO ,Bremen,Bremen,53.0758196,8.8071646,eBay
"SONY VGN-FS415M / PCG-7G1M / Notebook / 15,4"" / Win7 Pro / 160GB / 2GB RAM",Hildesheim,Niedersachsen,52.1521636,9.9513046,eBay
"Apple MacBook Air¬† 13,3 Zoll Laptop Intel Core i5 4. Gen. 8GB RAM 256GB SSD",Bremen,Bremen,53.0758196,8.8071646,eBay
"Lenovo ThinkPad L14, 14"", Intel Core i5-10210U, 512GB SSD, 32GB RAM, Win 10 Pro",Steinhagen,Mecklenburg-Vorpommern,53.8436425,11.929235,eBay
"Asus F509JA-EJ794T 15.6""/i3-1005/8/512SSD/W10",L√ºbbecke,Nordrhein-Westfalen,52.3027209,8.6183054,eBay
"Dynabook Portege X40 - 14'' Notebook - Core i5 1,6 GHz 35,6 cm (A1PMR41E1112)",Wedemark,Niedersachsen,52.5622873,9.7037034,eBay
"Lenovo ThinkPad P1 - 15,6'' Notebook - Core i9 2,4 GHz 39,6 cm (20TH001GGE)",Wedemark,Niedersachsen,52.5622873,9.7037034,eBay
"Acer Aspire 5 A515-56G-7876 - Intel Core i7-11xxx - 4,7 GHz (NX.A1MEV.006)",Wedemark,Niedersachsen,52.5622873,9.7037034,eBay
"Asus F200MA, 11,6 Zoll Netbook, Intel Celeron N2815, 2,1GHz, 2GB RAM, 500 GB HD",Hildesheim,Niedersachsen,52.1521636,9.9513046,eBay
"Compaq Laptop 15 Zoll Win7, Office 2016 Pro Plus und 4gb RAM",Bremen,Bremen,53.0758196,8.8071646,eBay
Acer Chromebook CB5-311-T6R7-13‚Äú-FULL HD-4HB-32GM eMMC-WEI√ü-H√ÑNDLER WIE NEU,Ibbenb√ºren,Nordrhein-Westfalen,52.2774772,7.7151417,eBay
"MSI GP60 2PEi585FD Leopard, Notebook, gray-black",Osnabr√ºck,Niedersachsen,52.266837,8.049741,eBay
"Lenovo IdeaPad N581, 8 GB RAM, Intel i5, Intel HD 4000, 320 GB HDD, DVD-Multi",G√ºtersloh,Nordrhein-Westfalen,51.9063997,8.3782078,eBay
Lenovo IdeaPad Miix 520-12IKB Iron Gray LTE Core i5-8250U 256GB SSD 8GB RAM W10P,M√ºnster,Nordrhein-Westfalen,51.9625101,7.6251879,eBay
"Acer ConceptD 5 CN517-71-769B 1TB SSD 17,3 Zoll Ultra-HD Creator Notebook - NEU",Bremen,Bremen,53.0758196,8.8071646,eBay
